street_id,street_prefix,street_name,terittory_id
_ul10,UL.,RODZYNKOWA,18737
_ul11,UL.,DAKTYLOWA,03554
_ul12,SKWER,SKACZĄCEJ GWIAZDY,47132
_ul13,UL.,OPALOWA,15065
_ul14,UL.,KWIATOWA,10562
_ul15,UL.,LAWENDOWA,10718
_ul16,UL.,ŁOMNICKA,11655
_ul17,UL.,NAGIETKOWA,13930
_ul18,UL.,PRZYLASZCZKOWA,17949
_ul19,UL.,DOŁĘGI-MOSTOWICZA,04064
_ul20,UL.,FILIPOWICZA,05007
_ul21,UL.,GOMBROWICZA,05787
_ul22,UL.,DRZEWIECKIEGO,04307
_ul23,UL.,GIŻYCKIEGO,05543
_ul24,UL.,GROCHOWIAKA,06135
_ul25,UL.,BOŁTUCIA,01784
_ul26,UL.,CIEŚLIKOWSKIEGO,03074
_ul27,UL.,APTEKARSKA,00378
_ul28,UL.,ARABSKA,00380
_ul29,UL.,AUGUSTOWSKA,00493
_ul30,BULW.,ZIENKIEWICZA,47129
_ul31,UL.,BALONOWA,00642
_ul32,UL.,BAZALTOWA,00909
_ul33,UL.,BETONOWA,01114
_ul34,UL.,NAŁKOWSKIEJ,13967
_ul35,UL.,NIKLIBORCA,43382
_ul36,UL.,SUSKIEGO,43383
_ul37,RONDO,27 WOŁYŃSKIEJ DYWIZJI PIECHOTY ARMII KRAJOWEJ,43361
_ul38,UL.,LUBAWSKA,11297
_ul39,UL.,GARDY,05340
_ul40,UL.,HALSKIEJ,43557
_ul41,UL.,CHWALIMIERSKA,02935
_ul42,UL.,GŁĘBOWICKA,39037
_ul43,UL.,MROZOWSKA,13439
_ul44,UL.,WOJNOWICKA,24619
_ul45,UL.,ARACHIDOWA,35007
_ul46,UL.,MIĘDZYGÓRSKA,36492
_ul47,UL.,PAROWOZOWA,15722
_ul48,UL.,NASTAWNICZA,14031
_ul49,UL.,ROZJAZDOWA,18947
_ul50,UL.,SZKUTNICZA,21983
_ul51,UL.,JARECKIEGO,43551
_ul52,UL.,WOJANOWSKA,43556
_ul53,UL.,RESZELSKA,18622
_ul54,UL.,RYCHŁA,19199
_ul55,UL.,ŻUBRZA,26551
_ul56,AL.,ŚLĄSKA,42738
_ul57,UL.,RYDZA-ŚMIGŁEGO,42735
_ul58,UL.,WITTEK,39836
_ul59,UL.,WANILIOWA,23615
_ul60,UL.,CYNAMONOWA,03182
_ul61,UL.,STRZEBLOWSKA,21355
_ul62,UL.,PERŁOWA,15953
_ul63,UL.,TOLKMICKA,22835
_ul64,UL.,KUBALI,38666
_ul65,RONDO,PILECKIEGO,41511
_ul66,UL.,OLBRACHTOWSKA,42737
_ul67,UL.,CZORSZTYŃSKA,03471
_ul68,BULW.,DEDALA,03718
_ul69,UL.,DESZCZOWA,03782
_ul70,UL.,DIAMENTOWA,03826
_ul71,UL.,DOKERSKA,04008
_ul72,UL.,DRUKARSKA,04279
_ul73,UL.,JANA STYKI I WOJCIECHA KOSSAKA,42406
_ul74,UL.,FRANKOWSKIEGO,42734
_ul75,RONDO,BEDNARZA,42845
_ul76,UL.,DZIELNICOWA,04628
_ul77,UL.,DŹWIRZYŃSKA,04724
_ul78,UL.,FILIPIŃSKA,05005
_ul79,UL.,CANALETTA,29476
_ul80,UL.,DYGATA,04495
_ul81,UL.,SZAŁWIOWA,21743
_ul82,UL.,ANCZYCA,00277
_ul83,UL.,BAJANA,00600
_ul84,UL.,PIŁSUDSKIEGO,16274
_ul85,UL.,VIVALDIEGO,36752
_ul86,UL.,BOGUSZEWSKIEJ,01612
_ul87,UL.,CABAJA,02540
_ul88,UL.,SOLSKIEGO,20551
_ul89,UL.,STEFKI,21126
_ul90,UL.,FROMBORSKA,05188
_ul91,UL.,MACHNICKA,42167
_ul92,UL.,RASZOWSKA,18465
_ul93,UL.,STRADOMSKA,21256
_ul94,UL.,JAŚMINOWA,07380
_ul95,UL.,DOBRZYKOWICKA,42170
_ul96,UL.,PODOLSKA,16834
_ul97,UL.,TYNIECKA,23257
_ul98,UL.,SIEROSZOWICKA,42168
_ul99,RONDO,SZOMAŃSKIEGO,43730
_ul100,UL.,ASTROWA,00475
_ul101,UL.,PLATÓWNY,43807
_ul102,UL.,CICHOCIEMNYCH,02977
_ul103,UL.,STOSZOWSKA,43808
_ul104,UL.,SŁONIMSKIEGO,20269
_ul105,UL.,OPOCZYŃSKA,15091
_ul106,UL.,ŁOZIŃSKA,35642
_ul107,UL.,OSTRÓDZKA,15398
_ul108,UL.,OTWOCKA,15465
_ul109,UL.,CEGLANA,02587
_ul110,UL.,CEMENTOWA,02609
_ul111,UL.,CIEPŁA,03032
_ul112,UL.,CZECHOWICKA,03339
_ul113,UL.,CZEKOLADOWA,03362
_ul114,UL.,GEODEZYJNA,05453
_ul115,UL.,KONIECPOLSKIEGO,09150
_ul116,UL.,AGATOWA,00138
_ul117,PL.,LEGIONÓW,10768
_ul118,UL.,LIDZKA,11045
_ul119,UL.,WIERZYŃSKIEGO,24193
_ul120,UL.,NOWAKA-JEZIORAŃSKIEGO,37415
_ul121,UL.,STAROLESKA,44420
_ul122,UL.,MYDLARSKIEGO,44421
_ul123,RONDO,ŻOŁNIERZY WYKLĘTYCH,44175
_ul124,RONDO,HAVLA,44422
_ul125,UL.,IWASZKIEWICZA,06944
_ul126,UL.,KIEPURY,08396
_ul127,UL.,LUDWIGA VAN BEETHOVENA,34862
_ul128,UL.,ŚREMSKA,22415
_ul129,UL.,ŻYCZLIWA,26615
_ul130,UL.,MARCA POLO,17017
_ul131,UL.,MAGELLANA,11898
_ul132,UL.,KOLUMBA,08986
_ul133,UL.,BABIEGO LATA,00533
_ul134,UL.,MGLISTA,12669
_ul135,UL.,LOGICZNA,11240
_ul136,UL.,KOLENDROWA,08837
_ul137,UL.,HALICKA,06470
_ul138,UL.,PODHALAŃSKA,16756
_ul139,RONDO,WOŹNIAKA,45302
_ul140,UL.,KACZMARKA,45303
_ul141,UL.,SCHUBERTA,45304
_ul142,UL.,SZARUGI,33255
_ul143,UL.,KRYSZTAŁOWA,10081
_ul144,UL.,BIERZYCKA,45305
_ul145,UL.,WOJACZKA,32990
_ul146,BULW.,KACZYŃSKICH,45640
_ul147,SKWER,WALENTYNOWICZ,45645
_ul148,UL.,PORAJOWSKA,45643
_ul149,UL.,RUCZAJOWA,19045
_ul150,UL.,FIGOWA,04981
_ul151,UL.,WOŁODYJOWSKIEJ,45644
_ul152,UL.,MALINOWSKIEGO,12071
_ul153,UL.,TRAKCYJNA,22921
_ul154,UL.,PRĘŻYCKA,45641
_ul155,UL.,URASKA,45642
_ul156,UL.,BŁOŃSKA,01469
_ul157,UL.,DĘBICKA,03791
_ul158,UL.,ARBUZOWA,00384
_ul159,UL.,BOBRZA,01501
_ul160,SKWER,NIEZALEŻNEGO ZRZESZENIA STUDENTÓW,42829
_ul161,UL.,JAŹWIŃSKA,42169
_ul162,UL.,ZAGAJNIKOWA,25345
_ul163,UL.,PASŁĘCKA,15771
_ul164,UL.,SUWALSKA,21614
_ul165,UL.,BRAHMSA,36602
_ul166,UL.,PERONOWA,15955
_ul167,UL.,ZAMKOWA,25547
_ul168,UL.,PETUNIOWA,36257
_ul169,UL.,BOBRZAŃSKA,01502
_ul170,UL.,BOMBARDIERSKA,01787
_ul171,UL.,HOKEISTÓW,06694
_ul172,UL.,HOLENDERSKA,06697
_ul173,UL.,HOŻA,06756
_ul174,UL.,HUBSKA,06787
_ul175,UL.,HUFCOWA,06797
_ul176,UL.,HUSYCKA,06816
_ul177,UL.,HUTNICZA,06825
_ul178,UL.,IDZIEGO,06849
_ul179,UL.,IGIELNA,06856
_ul180,UL.,IGLASTA,06860
_ul181,BULW.,IKARA,06872
_ul182,UL.,IŁAWSKA,06880
_ul183,PL.,INDYJSKI,06899
_ul184,UL.,INOWROCŁAWSKA,06907
_ul185,UL.,INSPEKTOWA,06909
_ul186,UL.,INŻYNIERSKA,06923
_ul187,UL.,IRKUCKA,06928
_ul188,UL.,IRYSOWA,06933
_ul189,UL.,HISZPAŃSKA,06669
_ul190,UL.,IWONICKA,06947
_ul191,UL.,JABŁECZNA,06961
_ul192,UL.,JADWIGI,07014
_ul193,UL.,JAGIELLOŃSKA,07029
_ul194,UL.,JAGODOWA,07059
_ul195,UL.,JAGODZIŃSKA,07061
_ul196,UL.,JAJCZARSKA,07067
_ul197,UL.,JAKSONOWICKA,07073
_ul198,UL.,JANOWSKA,07205
_ul199,UL.,JANTAROWA,07216
_ul200,UL.,HODOWLANA,06682
_ul201,UL.,JANUSZOWICKA,07230
_ul202,UL.,JAPOŃSKA,07235
_ul203,UL.,JARNOŁTOWSKA,07250
_ul204,UL.,JAROCIŃSKA,07252
_ul205,AL.,JARZĘBINOWA,07289
_ul206,UL.,JASIELSKA,07299
_ul207,UL.,JASKÓŁCZA,07329
_ul208,UL.,JASNA,07335
_ul209,UL.,JASPISOWA,07347
_ul210,UL.,JASTRZĘBIA,07354
_ul211,UL.,JAŚKOWICKA,07377
_ul212,,JATKI,07384
_ul213,AL.,JAWOROWA,07393
_ul214,UL.,JAWORSKA,07399
_ul215,UL.,JEDNOŚCI NARODOWEJ,07435
_ul216,UL.,JELENIOGÓRSKA,07459
_ul217,UL.,JEMEŃSKA,07474
_ul218,UL.,JEMIOŁOWA,07477
_ul219,UL.,JERZEGO,07492
_ul220,UL.,JERZMANOWSKA,07496
_ul221,UL.,JESIENNA,07499
_ul222,UL.,JESIENNICKA,07500
_ul223,UL.,JESIONOWA,07506
_ul224,UL.,JEZIOROWA,07537
_ul225,UL.,JEŻOWSKA,07555
_ul226,UL.,JĘCZMIENNA,07563
_ul227,UL.,JĘDRZEJOWSKA,07573
_ul228,UL.,JOANNITÓW,07579
_ul229,UL.,JODŁOWA,07582
_ul230,UL.,JORDANOWSKA,07609
_ul231,UL.,JORDAŃSKA,07612
_ul232,UL.,JÓZEFA,07626
_ul233,UL.,JUBILERSKA,07640
_ul234,UL.,JUGOSŁOWIAŃSKA,07649
_ul235,UL.,JUNACKA,07660
_ul236,UL.,JUTRZENKI,07699
_ul237,UL.,KACZEŃCOWA,07722
_ul238,UL.,KAJAKARZY,07774
_ul239,UL.,KALETNICZA,07797
_ul240,UL.,KALINOWA,07804
_ul241,UL.,MIŁKOWSKA,12952
_ul242,PL.,KALISKI,07825
_ul243,UL.,KAMIENIECKA,07873
_ul244,UL.,KAMIENNA,07879
_ul245,UL.,KAMIENNOGÓRSKA,07887
_ul246,UL.,KAMPINOSKA,07922
_ul247,UL.,KANONIA,07947
_ul248,AL.,KANONIERSKA,07953
_ul249,UL.,MIŁOSZYCKA,12967
_ul250,UL.,MIŃSKA,12989
_ul251,UL.,KAPITULNA,07983
_ul252,UL.,KAPLICZNA,07984
_ul253,UL.,KARCZEMNA,08022
_ul254,UL.,MIODOWA,12991
_ul255,AL.,KARKONOSKA,08041
_ul256,UL.,KARMELKOWA,08062
_ul257,UL.,MIRTOWA,13021
_ul258,UL.,KARPACKA,08096
_ul259,UL.,MLECZARSKA,13053
_ul260,UL.,KARWIŃSKA,08131
_ul261,UL.,MŁODA,13066
_ul262,AL.,KASZTANOWA,08170
_ul263,UL.,MŁODYCH TECHNIKÓW,13090
_ul264,UL.,KASZTELAŃSKA,08179
_ul265,UL.,MŁODZIEŻOWA,13096
_ul266,UL.,KASZUBSKA,08183
_ul267,UL.,KATEDRALNA,08202
_ul268,UL.,HANDELSMANA,06506
_ul269,UL.,HERCENA,06618
_ul270,UL.,HEWELIUSZA,06643
_ul271,UL.,HORBACZEWSKIEGO,06732
_ul272,UL.,IGNUTA,06866
_ul273,UL.,JANISZEWSKIEGO,07170
_ul274,UL.,JARACZA,07240
_ul275,UL.,JASIENICY,07302
_ul276,UL.,JASIŃSKIEJ,07319
_ul277,UL.,BIAŁODRZEWNA,01175
_ul278,UL.,PRZEMYSKA,17735
_ul279,UL.,PRZEMYSŁOWA,17742
_ul280,UL.,PRZESIECKA,17758
_ul281,UL.,PRZESTRZENNA,17769
_ul282,UL.,PRZY TORZE,17848
_ul283,UL.,PRZYJAŹNI,17926
_ul284,UL.,PRZYSTANKOWA,17990
_ul285,UL.,PSIE BUDY,18023
_ul286,UL.,PSZCZELARSKA,18036
_ul287,UL.,PSZCZYŃSKA,18045
_ul288,UL.,PSZENNA,18049
_ul289,UL.,PTASIA,18056
_ul290,UL.,DICKSTEINA,03830
_ul291,UL.,DMOWSKIEGO,03868
_ul292,UL.,DROBNERA,04194
_ul293,UL.,DROBUTA,04199
_ul294,UL.,DUBOIS,04337
_ul295,UL.,ELUARDA,04787
_ul296,UL.,GAGARINA,05239
_ul297,UL.,GAŁCZYŃSKIEGO,05300
_ul298,UL.,GEPPERTA,05457
_ul299,UL.,GERSONA,05464
_ul300,UL.,GŁOGOWCZYKA,05611
_ul301,UL.,GODEBSKIEGO,05681
_ul302,UL.,GODLEWSKIEGO,05686
_ul303,UL.,GOETLA,05705
_ul304,UL.,GÓRNICKIEGO,05961
_ul305,UL.,GRABSKIEGO,06052
_ul306,UL.,KLIMASA,08540
_ul307,UL.,KMICICA,08644
_ul308,UL.,KNIAZIEWICZA,08662
_ul309,UL.,KNOTA,08679
_ul310,UL.,KOPAŃSKIEGO,09252
_ul311,UL.,KORCZAKA,09329
_ul312,UL.,KOSIBY,09420
_ul313,UL.,KOSSAKA,09463
_ul314,UL.,TRESKI,22986
_ul315,UL.,TRZEBIATOWSKIEGO,23068
_ul316,UL.,UDZIELI,23302
_ul317,UL.,UJEJSKIEGO,23317
_ul318,UL.,WARDZYŃSKICH,23648
_ul319,UL.,WAWRZYNIAKA,23758
_ul320,UL.,WESOŁOWSKIEGO,23888
_ul321,UL.,WIENIAWSKIEGO,24123
_ul322,UL.,WIĘCKOWSKIEGO,24227
_ul323,UL.,WITTIGA,24467
_ul324,UL.,WIWULSKIEGO,24474
_ul325,UL.,WŁADA,24484
_ul326,UL.,WŁODKOWICA,24516
_ul327,UL.,DOMEYKI,04094
_ul328,UL.,DYGASIŃSKIEGO,04493
_ul329,UL.,ELSNERA,04785
_ul330,UL.,FALSKIEGO,04887
_ul331,UL.,FAŁATA,04889
_ul332,UL.,FRANKI,05158
_ul333,UL.,GĄSIOROWSKIEGO,05417
_ul334,UL.,GDACJUSZA,05428
_ul335,UL.,GIELNIAKA,05491
_ul336,UL.,GLOGERA,05587
_ul337,UL.,GŁOWACKIEGO,05627
_ul338,UL.,GOSZCZYŃSKIEGO,05867
_ul339,UL.,KLEEBERGA,08499
_ul340,UL.,KNASTERA,08659
_ul341,UL.,KOCHA,08719
_ul342,UL.,KOLBERGA,08812
_ul343,UL.,KOMEŃSKIEGO,09053
_ul344,UL.,KOMINKA,09062
_ul345,UL.,KONARSKIEGO,09112
_ul346,UL.,KONOPNICKIEJ,09186
_ul347,UL.,KORDECKIEGO,09345
_ul348,UL.,KORFANTEGO,09357
_ul349,UL.,KOSIDOWSKIEGO,09425
_ul350,UL.,KOŚNEGO,09595
_ul351,UL.,KOTSISA,09634
_ul352,UL.,KOWALSKIEGO,09672
_ul353,UL.,KRAIŃSKIEGO,09776
_ul354,UL.,KRAJEWSKIEGO,09782
_ul355,UL.,KRASICKIEGO,09828
_ul356,UL.,KRASZEWSKIEGO,09871
_ul357,UL.,GAJCEGO,05250
_ul358,UL.,KRZYWICKIEGO,10167
_ul359,UL.,KUKUCZKI,10356
_ul360,BULW.,KULCZYŃSKIEGO,47133
_ul361,UL.,KUNICKIEGO,10402
_ul362,UL.,KUSZTELANA,10499
_ul363,UL.,LECHONIA,10742
_ul364,UL.,LEDÓCHOWSKIEGO,10751
_ul365,UL.,LESZCZYŃSKIEGO,10878
_ul366,UL.,LEŚMIANA,10895
_ul367,UL.,LIBELTA,11021
_ul368,UL.,LINDEGO,11081
_ul369,UL.,GROTA-ROWECKIEGO,06191
_ul370,UL.,GROTTGERA,06206
_ul371,UL.,HLONDA,06671
_ul372,UL.,HUBALA,06771
_ul373,UL.,HYNKA,06837
_ul374,UL.,IDZIKOWSKIEGO,06851
_ul375,UL.,KARŁOWICZA,08058
_ul376,UL.,TAŃSKIEGO,22633
_ul377,UL.,TOMASZA PIERWSZEGO,22847
_ul378,UL.,TRENTOWSKIEGO,22985
_ul379,UL.,TUWIMA,23196
_ul380,UL.,ULANOWSKIEGO,23332
_ul381,UL.,URBAŃSKIEGO,23402
_ul382,UL.,WALIGÓRSKIEGO,23543
_ul383,UL.,WAŃKOWICZA,23620
_ul384,UL.,WEIGLA,23833
_ul385,UL.,WITOSA,24459
_ul386,UL.,WOJTKIEWICZA,24644
_ul387,UL.,WRÓBLEWSKIEGO,24840
_ul388,UL.,WYBICKIEGO,24906
_ul389,UL.,CHODKIEWICZA,02801
_ul390,UL.,MOZARTA,13411
_ul391,UL.,ŻÓŁKIEWSKIEGO,26529
_ul392,UL.,UZNAŃSKIEGO,36932
_ul393,SKWER,IDASZEWSKIEGO,47144
_ul394,UL.,MACZKA,11862
_ul395,UL.,BOGUSŁAWSKIEGO,01608
_ul396,UL.,BORA-KOMOROWSKIEGO,01811
_ul397,UL.,BORELOWSKIEGO,01825
_ul398,UL.,BRODZIŃSKIEGO,02104
_ul399,UL.,BRZÓSKI,02294
_ul400,UL.,CHEŁMOŃSKIEGO,02706
_ul401,UL.,CHUDOBY,02925
_ul402,UL.,CZACKIEGO,03221
_ul403,UL.,MAJAKOWSKIEGO,11949
_ul404,UL.,MAKUSZYŃSKIEGO,12024
_ul405,UL.,MALCZEWSKIEGO,12037
_ul406,UL.,MAŁACHOWSKIEGO,12130
_ul407,UL.,MARKOWSKIEGO,12379
_ul408,UL.,MEISSNERA,12589
_ul409,UL.,MIANOWSKIEGO,12671
_ul410,UL.,MICKIEWICZA,12740
_ul411,PL.,BORNA,01840
_ul412,UL.,CHOPINA,02849
_ul413,UL.,CIESZYŃSKIEGO,03064
_ul414,UL.,MOŚCICKIEGO,13390
_ul415,AL.,PADEREWSKIEGO,15530
_ul416,PL.,STASZICA,21070
_ul417,UL.,STWOSZA,21435
_ul418,UL.,SZAJNOCHY,21728
_ul419,PL.,SZELI,21898
_ul420,UL.,ŚCIEGIENNEGO,22290
_ul421,UL.,ŚWIĘTOCHOWSKIEGO,22544
_ul422,RONDO,REAGANA,43373
_ul423,WYB.,PASTEURA,15779
_ul424,PL.,PERECA,15940
_ul425,PL.,PIŁSUDSKIEGO,16272
_ul426,UL.,KOSSAK-SZCZUCKIEJ,09458
_ul427,UL.,TYRMANDA,23261
_ul428,AL.,HALLERA,06482
_ul429,UL.,BALZAKA,00648
_ul430,UL.,MORELOWSKIEGO,13284
_ul431,UL.,MIELCZARSKIEGO,12782
_ul432,UL.,MIKULICZA-RADECKIEGO,12908
_ul433,UL.,ŚNIADECKICH,22383
_ul434,UL.,WOLFKEGO,24669
_ul435,UL.,JAHNA,39309
_ul436,PL.,KATEDRALNY,08203
_ul437,UL.,KATOWICKA,08206
_ul438,UL.,KAZIMIERSKA,08247
_ul439,UL.,KAZIMIERZA JAGIELLOŃCZYKA,08259
_ul440,UL.,KAZIMIERZA WIELKIEGO,08265
_ul441,UL.,KAZNODZIEJSKA,08272
_ul442,UL.,MŁYNARSKA,13112
_ul443,UL.,KĄCKA,08283
_ul444,UL.,MODLIŃSKA,13171
_ul445,UL.,KĄTOWA,08301
_ul446,UL.,MODRA,13174
_ul447,UL.,KETLINGA,08325
_ul448,WYSPA,KĘPA MIESZCZAŃSKA,08345
_ul449,UL.,KĘPIŃSKA,08353
_ul450,UL.,KĘTRZYŃSKA,08357
_ul451,UL.,KIEŁBAŚNICZA,08384
_ul452,UL.,KIEŁCZOWSKA,08387
_ul453,UL.,KIEMLICZÓW,08393
_ul454,UL.,KLASZTORNA,08485
_ul455,UL.,KLECIŃSKA,08491
_ul456,UL.,KLECZKOWSKA,08495
_ul457,UL.,AFGAŃSKA,00133
_ul458,UL.,AGRESTOWA,00148
_ul459,UL.,ALIANCKA,00236
_ul460,UL.,ALPEJSKA,00242
_ul461,UL.,ALTANOWA,00246
_ul462,UL.,AŁUNOWA,00253
_ul463,UL.,AMARANTOWA,00254
_ul464,UL.,AMETYSTOWA,00266
_ul465,UL.,ANANASOWA,00275
_ul466,UL.,ANGIELSKA,00316
_ul467,UL.,ANNY,00339
_ul468,UL.,ARCHEOLOGÓW,00385
_ul469,AL.,ARMII KRAJOWEJ,00428
_ul470,UL.,ARMII LUDOWEJ,00436
_ul471,UL.,ARRASOWA,00449
_ul472,UL.,ARTYLERYJSKA,00457
_ul473,UL.,ASFALTOWA,00464
_ul474,PL.,MONGOLSKI,13239
_ul475,UL.,MONOPOLOWA,13248
_ul476,UL.,MONTE CASSINO,13252
_ul477,UL.,MODRZEWIOWA,13184
_ul478,UL.,MORAWSKA,13269
_ul479,UL.,MORELOWA,13283
_ul480,UL.,MORSKA,13296
_ul481,UL.,MORWOWA,13311
_ul482,UL.,MOSIĘŻNA,13324
_ul483,MOST,BARTOSZOWICKI,13334
_ul484,MOST,BOLESŁAWA KRZYWOUSTEGO,13336
_ul485,MOST,BURZOWY,13337
_ul486,MOST,GRUNWALDZKI,13342
_ul487,MOST,SKARGI,13345
_ul488,MOST,MŁYŃSKI,13349
_ul489,MOST,OŁAWSKI,13350
_ul490,MOST,OSOBOWICKI,13351
_ul491,MOST,PIASKOWY,13353
_ul492,MOST,POKOJU,13354
_ul493,MOST,POMORSKI,13355
_ul494,MOST,DMOWSKIEGO,13358
_ul495,MOST,SĄDOWY,13359
_ul496,MOST,SWOJCZYCKI,13360
_ul497,MOST,SZCZYTNICKI,13361
_ul498,MOST,ANTONIEGO,13363
_ul499,MOST,MACIEJA,13364
_ul500,MOST,TRZEBNICKI,13367
_ul501,MOST,TUMSKI,13368
_ul502,MOST,UNIWERSYTECKI,13369
_ul503,MOST,SIKORSKIEGO,13372
_ul504,MOST,ZWIERZYNIECKI,13373
_ul505,UL.,MOSTOWA,13379
_ul506,UL.,MOTYLKOWA,13406
_ul507,UL.,MRĄGOWSKA,13418
_ul508,UL.,MROŹNA,13443
_ul509,UL.,MUCHOBORSKA,13466
_ul510,UL.,MULICKA,13476
_ul511,UL.,MURARSKA,13486
_ul512,UL.,MUZEALNA,13518
_ul513,PL.,MUZEALNY,13519
_ul514,UL.,MYDLANA,13531
_ul515,UL.,MYSŁAKOWICKA,13540
_ul516,UL.,MYSŁOWICKA,13542
_ul517,UL.,MYŚLIWSKA,13563
_ul518,UL.,NA GROBLI,13600
_ul519,UL.,NA KOŃCU,13613
_ul520,UL.,NA NISKICH ŁĄKACH,13632
_ul521,UL.,NA OSTATNIM GROSZU,13639
_ul522,UL.,NA POLANCE,13648
_ul523,UL.,NA SZAŃCACH,13681
_ul524,UL.,NABYCIŃSKA,13722
_ul525,UL.,NADBRZEŻNA,13861
_ul526,UL.,NADRZECZNA,13902
_ul527,UL.,NAJŚWIĘTSZEJ MARII PANNY,13947
_ul528,UL.,NARCIARSKA,13996
_ul529,UL.,NARCYZOWA,13998
_ul530,UL.,NARZĘDZIOWA,14025
_ul531,UL.,NASIENNA,14028
_ul532,UL.,NASTURCJOWA,14036
_ul533,UL.,NASYPOWA,14039
_ul534,UL.,NAUCZYCIELSKA,14048
_ul535,UL.,NEFRYTOWA,14069
_ul536,UL.,MOJĘCICKA,13205
_ul537,UL.,MOKRA,13211
_ul538,UL.,MOKRONOSKA,13217
_ul539,UL.,MOKRZAŃSKA,13224
_ul540,UL.,NENUFAROWA,14076
_ul541,UL.,NEPALSKA,14079
_ul542,UL.,NIBORSKA,14101
_ul543,UL.,NIEDŹWIEDZIA,14149
_ul544,UL.,NIEMCZAŃSKA,14178
_ul545,UL.,NIEMKIŃSKA,14185
_ul546,UL.,NIEPIERZYŃSKA,14198
_ul547,UL.,NIEPODLEGŁOŚCI,14203
_ul548,UL.,NIKLOWA,14259
_ul549,UL.,NIZINNA,14281
_ul550,UL.,NOTECKA,14329
_ul551,UL.,NOWA,14330
_ul552,UL.,NOWODWORSKA,14418
_ul553,UL.,NOWOGRÓDZKA,14428
_ul554,UL.,NOWOHUCKA,14429
_ul555,UL.,NOWOSĄDECKA,14467
_ul556,UL.,NOWOTARSKA,14478
_ul557,UL.,NOWOWIEJSKA,14495
_ul558,UL.,NOWY ŚWIAT,14535
_ul559,PL.,NOWY TARG,14536
_ul560,UL.,NYSKA,14559
_ul561,UL.,OBJAZDOWA,14575
_ul562,UL.,OBODRZYCKA,14590
_ul563,UL.,OBORNICKA,14593
_ul564,UL.,OBOŹNA,14600
_ul565,SKWER,OBROŃCÓW HELU,47139
_ul566,UL.,OBROŃCÓW POCZTY GDAŃSKIEJ,14637
_ul567,UL.,ODCINEK,14725
_ul568,UL.,ODESKA,14731
_ul569,UL.,ODKRYWCÓW,14733
_ul570,UL.,ODOLANOWSKA,14746
_ul571,UL.,ODRZAŃSKA,14770
_ul572,UL.,OFIAR OŚWIĘCIMSKICH,14797
_ul573,UL.,OFICERSKA,14806
_ul574,UL.,OGRODOWA,14834
_ul575,UL.,OKÓLNA,14890
_ul576,UL.,OKRĘTOWA,14902
_ul577,UL.,NIEBIESKA,14109
_ul578,UL.,OKRĘŻNA,14907
_ul579,UL.,OKSYWSKA,14919
_ul580,UL.,OLESKA,14973
_ul581,UL.,OLEŚNICKA,14975
_ul582,UL.,OLIWKOWA,14991
_ul583,UL.,OLSZTYŃSKA,15016
_ul584,UL.,OŁAWSKA,15031
_ul585,UL.,OŁBIŃSKA,15032
_ul586,UL.,OŁTASZYŃSKA,15040
_ul587,UL.,OMSKA,15045
_ul588,UL.,OPATOWICKA,15070
_ul589,WYSPA,OPATOWICKA,15071
_ul590,UL.,OPŁOTKOWA,15090
_ul591,UL.,OPOLSKA,15095
_ul592,UL.,OPOROWSKA,15100
_ul593,UL.,NIECAŁA,14116
_ul594,UL.,ORACZY,15109
_ul595,UL.,ORAWSKA,15112
_ul596,PL.,ORLĄT LWOWSKICH,15146
_ul597,UL.,ORNA,15186
_ul598,AL.,KASPROWICZA,08149
_ul599,UL.,AUSTRALIJSKA,00505
_ul600,UL.,AZALIOWA,00518
_ul601,UL.,BABIMOJSKA,00535
_ul602,UL.,BAGATELA,00579
_ul603,UL.,BAŁKAŃSKA,00654
_ul604,UL.,BAŁTYCKA,00656
_ul605,UL.,BARBARY,00729
_ul606,UL.,BARDZKA,00754
_ul607,UL.,BARTNICZA,00801
_ul608,UL.,BARTOSZOWICKA,00817
_ul609,UL.,BARWINKOWA,00831
_ul610,UL.,BAŻANCIA,00921
_ul611,UL.,BEDNARSKA,00956
_ul612,UL.,BELGIJSKA,00979
_ul613,UL.,BELGRADZKA,00980
_ul614,UL.,BELWEDERCZYKÓW,00991
_ul615,UL.,BENEDYKTYŃSKA,01023
_ul616,UL.,BENGALSKA,01028
_ul617,UL.,BERBERYSOWA,01044
_ul618,UL.,BESKIDZKA,01103
_ul619,UL.,BEZPIECZNA,01120
_ul620,UL.,BEŻOWA,01124
_ul621,UL.,BĘDKOWSKA,01125
_ul622,UL.,BĘDZIŃSKA,01127
_ul623,UL.,BIAŁA,01132
_ul624,UL.,LISKEGO,29478
_ul625,SKWER,CYBULSKIEGO,47130
_ul626,UL.,BROSSA,30351
_ul627,UL.,LINKEGO,30353
_ul628,UL.,BONCZYKA,31892
_ul629,BULW.,WŁOSTOWICA,47128
_ul630,UL.,RYDYGIERA,19216
_ul631,UL.,SĘPA-SZARZYŃSKIEGO,19733
_ul632,UL.,SIEMIEŃSKIEGO,19813
_ul633,UL.,SKARBKA,19998
_ul634,UL.,SKOCZYLASA,20075
_ul635,UL.,SŁAWKA,20209
_ul636,UL.,SMOLUCHOWSKIEGO,20372
_ul637,UL.,ŚWISTACKIEGO,22572
_ul638,UL.,TASZYCKIEGO,22702
_ul639,UL.,KOŚCIUSZKI,09582
_ul640,AL.,KROMERA,09951
_ul641,UL.,LELEWELA,10793
_ul642,UL.,LIPIŃSKIEGO,11125
_ul643,UL.,CZESŁAWA,03452
_ul644,UL.,DAMROTA,03581
_ul645,UL.,DASZYŃSKIEGO,03639
_ul646,UL.,DĄBKA,03654
_ul647,UL.,DĄBROWSKIEGO,03674
_ul648,UL.,DEMBOWSKIEGO,03746
_ul649,UL.,DĘBICKIEGO,03793
_ul650,UL.,PIĘTAKA,16194
_ul651,UL.,PIRAMOWICZA,16332
_ul652,UL.,DARWINA,03624
_ul653,UL.,DAWIDA,03643
_ul654,UL.,DŁUGOSZA,03851
_ul655,UL.,DOBRACKIEGO,03932
_ul656,UL.,NABIELAKA,13718
_ul657,UL.,NEHRINGA,14070
_ul658,UL.,NIEDZIAŁKOWSKIEGO,14140
_ul659,UL.,NIEMCEWICZA,14177
_ul660,UL.,NOAKOWSKIEGO,14289
_ul661,UL.,NOBLA,14291
_ul662,UL.,NORBLINA,14310
_ul663,UL.,NULLA,14543
_ul664,UL.,OKRZEI,14914
_ul665,UL.,OKULICKIEGO,14929
_ul666,UL.,OPPMANA,15101
_ul667,UL.,OSMAŃCZYKA,15327
_ul668,UL.,PALACHA,15567
_ul669,UL.,PARNICKIEGO,15714
_ul670,UL.,PLATER,16451
_ul671,UL.,PŁOŃSKIEGO,16523
_ul672,UL.,POLAKA,16965
_ul673,UL.,PRUSA,17577
_ul674,UL.,SOSNKOWSKIEGO,20596
_ul675,UL.,STANISŁAWSKIEGO,20834
_ul676,UL.,STANKI,20841
_ul677,UL.,STEIN,21129
_ul678,UL.,STRUGA,21308
_ul679,UL.,SUCHARSKIEGO,21499
_ul680,UL.,SUPIŃSKIEGO,21583
_ul681,PL.,KOŚCIUSZKI,09580
_ul682,PL.,HIRSZFELDA,06666
_ul683,UL.,JACKOWSKIEGO,07001
_ul684,UL.,JANICKIEGO,07157
_ul685,UL.,JOLIOT-CURIE,07591
_ul686,PL.,ANIELEWICZA,00321
_ul687,UL.,BARTLA,00792
_ul688,PL.,BEMA,01013
_ul689,PL.,ZAMENHOFA,25535
_ul690,WYB.,SŁOWACKIEGO,26978
_ul691,PL.,WRÓBLEWSKIEGO,29469
_ul692,UL.,DRAHONOWSKIEJ,30352
_ul693,PL.,NANKIERA,31331
_ul694,UL.,SKARGI,20010
_ul695,AL.,SŁOWACKIEGO,20288
_ul696,UL.,WARYŃSKIEGO,23707
_ul697,WYB.,WYSPIAŃSKIEGO,25085
_ul698,UL.,BACHA,00549
_ul699,UL.,SZEWCZENKI,21935
_ul700,AL.,RÓŻYCKIEGO,19019
_ul701,UL.,WYSZYŃSKIEGO,25107
_ul702,UL.,UNRUGA,23377
_ul703,UL.,HŁASKI,06677
_ul704,UL.,ZOLI,26247
_ul705,UL.,SZARSKIEGO,21782
_ul706,UL.,SZCZYRKI,21878
_ul707,UL.,SZOLC-ROGOZIŃSKIEGO,22018
_ul708,UL.,ŚLEWIŃSKIEGO,22319
_ul709,UL.,ŚNIEGOCKIEGO,22392
_ul710,UL.,BĄKA,33979
_ul711,UL.,KUKLIŃSKIEGO,36911
_ul712,UL.,CZAPLIŃSKIEGO,39306
_ul713,UL.,HAISIGA,39307
_ul714,UL.,HARTMANA,39308
_ul715,UL.,MODELSKIEGO,39312
_ul716,UL.,WAGNERA,23494
_ul717,UL.,PAUTSCHA,15827
_ul718,UL.,PĘKALSKIEGO,15994
_ul719,UL.,PILATA,16216
_ul720,PL.,DANIŁOWSKIEGO,03595
_ul721,UL.,KOŁŁĄTAJA,09003
_ul722,UL.,KOPERNIKA,09282
_ul723,UL.,PUŁTUSKA,18168
_ul724,UL.,PURPUROWA,18175
_ul725,UL.,PUSTA,18178
_ul726,UL.,PUSTECKA,18183
_ul727,UL.,PUSZCZYKOWSKA,18203
_ul728,UL.,PYRZYCKA,18227
_ul729,UL.,RABCZAŃSKA,18246
_ul730,UL.,RACIBORSKA,18263
_ul731,UL.,RADAROWA,18292
_ul732,UL.,RADŁOWA,18303
_ul733,UL.,RADOMSKA,18316
_ul734,UL.,RADOSNA,18322
_ul735,UL.,RADZIONKOWSKA,18362
_ul736,UL.,RAJSKA,18403
_ul737,UL.,RAKIETOWA,18415
_ul738,UL.,RAKOWIECKA,18430
_ul739,UL.,RATAJÓW,18475
_ul740,,RYNEK RATUSZ,18487
_ul741,UL.,RATYŃSKA,18492
_ul742,UL.,RDESTOWA,18511
_ul743,UL.,REDARÓW,18520
_ul744,UL.,REDYCKA,18537
_ul745,UL.,REWALSKA,18634
_ul746,UL.,REZEDOWA,18654
_ul747,UL.,RĘDZIŃSKA,18670
_ul748,WYSPA,RĘDZIŃSKA,18671
_ul749,UL.,RĘKODZIELNICZA,18675
_ul750,UL.,ROBOTNICZA,18695
_ul751,UL.,RODZINNA,18725
_ul752,UL.,ROGOWSKA,18768
_ul753,UL.,ROLNA,18819
_ul754,UL.,ROŚLINNA,18903
_ul755,UL.,ROWEROWA,18919
_ul756,UL.,ROZBRAT,18932
_ul757,PL.,ROZJEZDNY,18948
_ul758,UL.,ROZMARYNOWA,18955
_ul759,UL.,RÓWNA,18985
_ul760,AL.,RÓŻ,18994
_ul761,UL.,RÓŻANA,19000
_ul762,UL.,RÓŻY WIATRÓW,19016
_ul763,UL.,RUBINOWA,19033
_ul764,UL.,RUCIANA,19041
_ul765,UL.,RUDAWSKA,19055
_ul766,UL.,RUDZKA,19082
_ul767,UL.,RUMIANKOWA,19094
_ul768,UL.,RUSKA,19119
_ul769,UL.,RYBACKA,19142
_ul770,UL.,RYBNICKA,19179
_ul771,UL.,WYŚCIGOWA,25122
_ul772,PL.,WYZWOLENIA,25132
_ul773,UL.,ZABŁOCIE,25264
_ul774,UL.,ZABRODZKA,25282
_ul775,UL.,RAWICKA,18495
_ul776,UL.,ZABRZAŃSKA,25287
_ul777,UL.,RAWSKA,18498
_ul778,UL.,ZACHODNIA,25305
_ul779,UL.,ZAGŁĘBIOWSKA,25352
_ul780,UL.,ZAGONY,25359
_ul781,UL.,ZAGRODNICZA,25390
_ul782,UL.,ZAGRZEBSKA,25398
_ul783,UL.,ZAJAZDOWA,25408
_ul784,UL.,ZAJĄCZKOWSKA,25419
_ul785,UL.,ZAKŁADOWA,25449
_ul786,UL.,ZAKOPIAŃSKA,25458
_ul787,UL.,ZAKRZOWSKA,25478
_ul788,UL.,ZALIPIE,25500
_ul789,UL.,ZAŁĘŻE,25513
_ul790,UL.,ZAMOJSKA,25557
_ul791,UL.,ZAOLZIAŃSKA,25599
_ul792,UL.,ZAPAŚNICZA,25616
_ul793,UL.,ZAPOROSKA,25637
_ul794,UL.,ZAPOTOCZE,25640
_ul795,UL.,ZARZECZE,25687
_ul796,UL.,ZASTĘPOWA,25720
_ul797,UL.,ZAŚCIANKOWA,25733
_ul798,ZAUŁEK,ROGOZIŃSKI,25779
_ul799,ZAUŁEK,WOLSKI,25801
_ul800,UL.,ZAWALNA,25831
_ul801,UL.,ZAWIERCIAŃSKA,25841
_ul802,UL.,ZAWISZY CZARNEGO,25857
_ul803,UL.,ZAWOŃSKA,25872
_ul804,UL.,ZAZIĘBIE,25879
_ul805,UL.,ZDROWA,25948
_ul806,UL.,ZDUŃSKA,25960
_ul807,UL.,ZEFIROWA,25978
_ul808,UL.,ZEMSKA,26002
_ul809,UL.,ZGODNA,26023
_ul810,PL.,ZGODY,26025
_ul811,UL.,ZGORZELECKA,26030
_ul812,UL.,ZIELNA,26077
_ul813,UL.,ZIELONA,26081
_ul814,UL.,ZIELONEGO DĘBU,26093
_ul815,UL.,ZIELONOGÓRSKA,26102
_ul816,UL.,ZIEMNIACZANA,26127
_ul817,UL.,ZIĘBICKA,26141
_ul818,UL.,ZIMOWA,26163
_ul819,UL.,ZŁOCIENIOWA,26183
_ul820,UL.,ZŁOTA,26188
_ul821,UL.,ZŁOTEJ LILII,26200
_ul822,UL.,ZŁOTNICKA,26204
_ul823,UL.,ZŁOTORYJSKA,26211
_ul824,UL.,ZŁOTOSTOCKA,26212
_ul825,UL.,ZŁOTOWSKA,26213
_ul826,UL.,ZBOŻOWA,25910
_ul827,UL.,ZDROJOWA,25944
_ul828,UL.,ZWIADOWCÓW,26286
_ul829,UL.,ZWROTNICZA,26319
_ul830,UL.,ZWYCIĘSKA,26321
_ul831,UL.,ZYNDRAMA Z MASZKOWIC,26352
_ul832,UL.,ŹRÓDLANA,26359
_ul833,UL.,ŻABIA GROBLA,26368
_ul834,UL.,ŻABIA ŚCIEŻKA,26369
_ul835,UL.,ŻAGAŃSKA,26387
_ul836,UL.,ŻEGIESTOWSKA,26419
_ul837,UL.,ŻEGLARSKA,26420
_ul838,UL.,ŻELAZNA,26433
_ul839,UL.,ŻEŃCÓW,26454
_ul840,UL.,ŻERNICKA,26460
_ul841,UL.,ŻMIGRODZKA,26477
_ul842,UL.,ŻMUDZKA,26485
_ul843,UL.,ŻNIWNA,26492
_ul844,UL.,ŻOŁNIERSKA,26498
_ul845,UL.,ŻURAWIA,26579
_ul846,UL.,ŻUŻLOWCÓW,26594
_ul847,UL.,ŻWIRKI I WIGURY,26608
_ul848,UL.,ŻWIROWA,26611
_ul849,UL.,ŻYTNIA,26635
_ul850,UL.,ŻYWIECKA,26640
_ul851,UL.,BUCZACKA,26855
_ul852,UL.,ZEBRZYDOWSKA,26975
_ul853,UL.,WALOŃSKA,26979
_ul854,UL.,SKOROSZOWSKA,26981
_ul855,UL.,OSOLSKA,26982
_ul856,UL.,BIRMAŃSKA,29466
_ul857,UL.,SMARDZOWSKA,29468
_ul858,UL.,KAPISTRANA,29474
_ul859,UL.,OJCÓW OBLATÓW,29999
_ul860,UL.,CZERNIAWSKA,30000
_ul861,UL.,PAMIRSKA,30001
_ul862,UL.,WAMBIERZYCKA,30350
_ul863,ZAUŁEK,OSSOLIŃSKICH,31893
_ul864,MOST,BRODZKI,32050
_ul865,MOST,JARNOŁTOWSKI,32051
_ul866,MOST,MARSZOWICKI,32052
_ul867,MOST,MAŚLICKI,32053
_ul868,MOST,MUCHOBORSKI,32054
_ul869,MOST,NAD KASINĄ,32055
_ul870,MOST,OPOROWSKI,32056
_ul871,MOST,PILCZYCKI,32057
_ul872,MOST,RATYŃSKI,32058
_ul873,MOST,STRZEGOMSKI,32059
_ul874,MOST,ŻERNICKI,32060
_ul875,MOSTY,ŚREDZKIE,32061
_ul876,MOST,KLECIŃSKI,32062
_ul877,MOST,PARKOWY,32063
_ul878,MOST,PARTYNICKI,32064
_ul879,MOST,RAKOWIECKI,32065
_ul880,MOST,PAWŁOWICKI,32069
_ul881,MOST,POLANOWICKI,32071
_ul882,MOST,SOŁTYSOWICKI,32072
_ul883,MOST,STRACHOCIŃSKI,32073
_ul884,MOST,WIDAWSKI,32074
_ul885,MOST,WILCZYCKI,32075
_ul886,MOST,ZAKRZOWSKI,32076
_ul887,MOSTY,JAGIELLOŃSKIE,32077
_ul888,MOST,SŁODOWY,32078
_ul889,MOST,KLARY,32079
_ul890,MOST,ZALESKI,32080
_ul891,UL.,RYCHTALSKA,19201
_ul892,UL.,RYMARSKA,19242
_ul893,,RYNEK,19252
_ul894,UL.,RYSIA,19295
_ul895,UL.,RYSKA,19297
_ul896,UL.,RYTOWNICZA,19307
_ul897,UL.,RYŻOWA,19309
_ul898,UL.,RZECZNA,19326
_ul899,UL.,RZEMIEŚLNICZA,19335
_ul900,UL.,RZEPAKOWA,19339
_ul901,UL.,RZESZOWSKA,19351
_ul902,UL.,RZEŹBIARSKA,19360
_ul903,UL.,RZEŹNICZA,19366
_ul904,UL.,SADOWA,19404
_ul905,UL.,SADOWNICZA,19406
_ul906,UL.,SALEZJAŃSKA,19433
_ul907,UL.,SAMOLOTOWA,19468
_ul908,UL.,SAMOTNA,19476
_ul909,UL.,SAMOTWORSKA,19477
_ul910,UL.,SANOCKA,19502
_ul911,UL.,SAPERÓW,19506
_ul912,UL.,SARAJEWSKA,19518
_ul913,UL.,SARBINOWSKA,19523
_ul914,UL.,SARNIA,19536
_ul915,UL.,SASANKOWA,19549
_ul916,UL.,SĄDOWA,19581
_ul917,UL.,SELEDYNOWA,19656
_ul918,UL.,SEMAFOROWA,19661
_ul919,UL.,SERBSKA,19691
_ul920,UL.,SERNICKA,19698
_ul921,UL.,SEROWARSKA,19701
_ul922,UL.,SETNA,19712
_ul923,UL.,SEWASTOPOLSKA,19713
_ul924,UL.,SMĘTNA,20332
_ul925,UL.,SEZAMKOWA,19719
_ul926,UL.,SMOCZA,20334
_ul927,UL.,SĘPIA,19734
_ul928,UL.,SIEDLECKA,19769
_ul929,UL.,SIEDLICZAN,19777
_ul930,UL.,SIELSKA,19802
_ul931,UL.,SIENNA,19836
_ul932,UL.,SIERADZKA,19844
_ul933,UL.,SIEWCÓW,19889
_ul934,UL.,SIEWIERSKA,19890
_ul935,UL.,SMOLECKA,20348
_ul936,UL.,SIEWNA,19891
_ul937,UL.,ŁANOWSKIEGO,39311
_ul938,UL.,WĄSOWICZA,39313
_ul939,UL.,WERESZYCKIEGO,39314
_ul940,BULW.,JASIŃSKIEGO,47136
_ul941,UL.,STEINHAUSA,21132
_ul942,UL.,PAWŁOWA,15865
_ul943,UL.,PERECA,15941
_ul944,UL.,PERZYŃSKIEGO,15968
_ul945,UL.,PETRAŻYCKIEGO,15977
_ul946,UL.,JUSZCZAKA,07693
_ul947,UL.,KADŁUBKA,07758
_ul948,UL.,KARPIŃSKIEGO,08106
_ul949,UL.,KASPRZAKA,08157
_ul950,UL.,ABRAHAMA,00091
_ul951,UL.,ADAMCZEWSKICH,00101
_ul952,UL.,ASNYKA,00470
_ul953,UL.,AWICENNY,00511
_ul954,UL.,BACZYŃSKIEGO,00569
_ul955,UL.,BADURY,00574
_ul956,UL.,BAŁUCKIEGO,00661
_ul957,UL.,BANDTKIEGO,00681
_ul958,UL.,BARLICKIEGO,00763
_ul959,UL.,BATOREGO,00891
_ul960,UL.,BENIOWSKIEGO,01034
_ul961,UL.,BERENTA,01052
_ul962,UL.,PUŁASKIEGO,18095
_ul963,UL.,PURKYNIEGO,18173
_ul964,UL.,RAPACKIEGO,18451
_ul965,UL.,REJA,18565
_ul966,UL.,REYMONTA,18648
_ul967,UL.,ROSPONDA,18880
_ul968,UL.,ROŹDZIEŃSKIEGO,18977
_ul969,UL.,RUBCZAKA,19029
_ul970,UL.,KILIŃSKIEGO,08435
_ul971,UL.,ABRAMOWSKIEGO,00095
_ul972,UL.,PODBIAŁOWA,16689
_ul973,UL.,PODCHORĄŻYCH,16713
_ul974,UL.,PODRÓŻNICZA,16844
_ul975,,PODWALE,16874
_ul976,UL.,PODWÓRCOWA,16889
_ul977,UL.,POGODNA,16900
_ul978,UL.,POLARNA,16979
_ul979,UL.,POLESKA,16989
_ul980,UL.,POLKOWICKA,17004
_ul981,UL.,POLNA,17011
_ul982,PL.,POLSKI,17032
_ul983,UL.,POŁABIAN,17052
_ul984,UL.,POŁANIECKA,17054
_ul985,UL.,POŁUDNIOWA,17070
_ul986,UL.,POMARAŃCZOWA,17073
_ul987,UL.,POMORSKA,17088
_ul988,AL.,POPRZECZNA,17170
_ul989,UL.,PORANNA,17191
_ul990,UL.,PORĘBSKA,17205
_ul991,UL.,PORONIŃSKA,17211
_ul992,UL.,PORTOWA,17217
_ul993,UL.,PORZECZKOWA,17226
_ul994,UL.,POSTĘPOWA,17247
_ul995,UL.,POSTOLIŃSKA,17250
_ul996,UL.,POŚWIĘCKA,17263
_ul997,UL.,POTOKOWA,17298
_ul998,UL.,POWIEWNA,17326
_ul999,UL.,POWSTAŃCÓW ŚLĄSKICH,17366
_ul1000,SKWER,POWSTAŃCÓW WARSZAWSKICH,47135
_ul1001,PL.,POWSTAŃCÓW WARSZAWY,17371
_ul1002,PL.,POWSTAŃCÓW WIELKOPOLSKICH,17376
_ul1003,UL.,POZIOMKOWA,17390
_ul1004,UL.,POZNAŃSKA,17394
_ul1005,UL.,PÓŁNOCNA,17421
_ul1006,UL.,PRACKA,17432
_ul1007,AL.,PRACY,17434
_ul1008,UL.,PROMENADA,17527
_ul1009,UL.,PROMIEŃ,17536
_ul1010,UL.,PROSTA,17547
_ul1011,UL.,PRUDNICKA,17571
_ul1012,UL.,PRUSICKA,17583
_ul1013,UL.,PRZECHODNIA,17635
_ul1014,UL.,PRZEDMIEJSKA,17657
_ul1015,UL.,PRZEDNIA,17678
_ul1016,UL.,PRZEDŚWIT,17684
_ul1017,UL.,PRZEDWIOŚNIE,17688
_ul1018,UL.,PRZEJAZDOWA,17699
_ul1019,PRZEJŚCIE,GARNCARSKIE,17703
_ul1020,PRZEJŚCIE,ŻELAŹNICZE,17704
_ul1021,UL.,PRZELOT,17714
_ul1022,UL.,PRZEMIŁOWSKA,17731
_ul1023,UL.,PRZEMKOWSKA,17732
_ul1024,UL.,SOLIŃSKA,20537
_ul1025,PL.,SOLNY,20544
_ul1026,UL.,SOŁTYSOWICKA,20568
_ul1027,UL.,SOPOCKA,20582
_ul1028,UL.,SOSNOWA,20598
_ul1029,UL.,SOSNOWIECKA,20601
_ul1030,UL.,SOWIA,20615
_ul1031,UL.,SPACEROWA,20641
_ul1032,UL.,SPADOCHRONIARZY,20645
_ul1033,UL.,SPAWACZY,20655
_ul1034,UL.,SPISKA,20666
_ul1035,UL.,SPOKOJNA,20677
_ul1036,UL.,SPOŁECZNA,20678
_ul1037,UL.,SPORTOWA,20683
_ul1038,UL.,SPÓŁDZIELCZA,20696
_ul1039,PL.,SREBRNY,20738
_ul1040,UL.,SROCZA,20744
_ul1041,UL.,STABŁOWICKA,20754
_ul1042,UL.,STACYJNA,20781
_ul1043,UL.,STAJENNA,20801
_ul1044,UL.,STALOWOWOLSKA,20811
_ul1045,UL.,STANISŁAWOWSKA,20831
_ul1046,UL.,STANÓW ZJEDNOCZONYCH,20848
_ul1047,UL.,STARGARDZKA,20908
_ul1048,UL.,STAROBIELAWSKA,20914
_ul1049,UL.,STARODĘBOWA,20926
_ul1050,UL.,STARODWORSKA,20932
_ul1051,UL.,STAROGAJOWA,20934
_ul1052,UL.,STAROGRANICZNA,20939
_ul1053,UL.,STAROGROBLOWA,20940
_ul1054,UL.,STAROMŁYŃSKA,20958
_ul1055,UL.,STAROPOLSKA,20971
_ul1056,UL.,STAROŚCIŃSKA,20991
_ul1057,UL.,STAWOWA,21101
_ul1058,UL.,STEROWCOWA,21153
_ul1059,UL.,STOBRAWSKA,21184
_ul1060,UL.,STOCZNIOWA,21189
_ul1061,UL.,STODOLNA,21193
_ul1062,UL.,STOKROTKOWA,21228
_ul1063,UL.,STOLARSKA,21231
_ul1064,UL.,STOPNICKA,21244
_ul1065,UL.,STRACHOCIŃSKA,21249
_ul1066,UL.,STRACHOWICKA,21250
_ul1067,UL.,STRAŻACKA,21271
_ul1068,UL.,STRAŻNICZA,21275
_ul1069,UL.,STRĄCZKOWA,21280
_ul1070,UL.,STROMA,21293
_ul1071,UL.,STRUMYKOWA,21325
_ul1072,UL.,STRYJSKA,21346
_ul1073,UL.,STRZEGOMSKA,21359
_ul1074,PL.,STRZEGOMSKI,21360
_ul1075,PL.,STRZELECKI,21384
_ul1076,UL.,STUDZIENNA,21425
_ul1077,UL.,SUCHA,21489
_ul1078,UL.,SUDECKA,21525
_ul1079,UL.,SUKIELICKA,21537
_ul1080,,SUKIENNICE,21539
_ul1081,UL.,SULEJOWSKA,21549
_ul1082,UL.,SULISTROWSKA,21562
_ul1083,UL.,SULMIERZYCKA,21564
_ul1084,UL.,SUŁOWSKA,21577
_ul1085,UL.,SWOBODNA,21625
_ul1086,UL.,SYCOWSKA,21647
_ul1087,UL.,SYGNAŁOWA,21656
_ul1088,UL.,SYJAMSKA,21659
_ul1089,UL.,SYNÓW PUŁKU,21670
_ul1090,UL.,SZACHISTÓW,21696
_ul1091,UL.,SZAFRANOWA,21721
_ul1092,UL.,SZARA,21768
_ul1093,UL.,SZAROTKOWA,21780
_ul1094,UL.,SZARYCH SZEREGÓW,21787
_ul1095,UL.,SZCZAWIOWA,21800
_ul1096,UL.,SZCZECIŃSKA,21805
_ul1097,UL.,SZCZEPIŃSKA,21829
_ul1098,,RYNEK SZCZEPIŃSKI,21830
_ul1099,UL.,SZCZEPOWA,21831
_ul1100,UL.,SZCZĘŚLIWA,21846
_ul1101,UL.,SZCZYCIEŃSKA,21866
_ul1102,UL.,SZCZYGLA,21869
_ul1103,UL.,SZCZYTNICKA,21883
_ul1104,UL.,SZEWSKA,21947
_ul1105,UL.,SZKLARSKA,21962
_ul1106,UL.,SZKOCKA,21967
_ul1107,UL.,SZKOLNA,21970
_ul1108,UL.,SZMARAGDOWA,22003
_ul1109,UL.,SZPACZA,22057
_ul1110,UL.,SZPILKOWA,22070
_ul1111,UL.,SZPITALNA,22073
_ul1112,UL.,SZPROTAWSKA,22076
_ul1113,UL.,SZRONOWA,22096
_ul1114,UL.,SZTABOWA,22098
_ul1115,UL.,SZWEDZKA,22179
_ul1116,UL.,SZYBKA,22207
_ul1117,UL.,SZYBOWCOWA,22210
_ul1118,UL.,ŚCINAWSKA,22302
_ul1119,UL.,ŚLAZOWA,22304
_ul1120,UL.,ŚLEPA,22317
_ul1121,UL.,ŚLĘZOUJŚCIE,22321
_ul1122,UL.,ŚLĘŻAŃSKA,22323
_ul1123,UL.,ŚLĘŻNA,22324
_ul1124,UL.,ŚLICZNA,22326
_ul1125,UL.,ŚLIWKOWA,22339
_ul1126,AL.,ŚLIWOWA,22342
_ul1127,UL.,ŚNIEŻNA,22400
_ul1128,UL.,ŚREDZKA,22414
_ul1129,UL.,ŚRODKOWA,22419
_ul1130,UL.,ŚRUBOWA,22437
_ul1131,UL.,ŚRUTOWA,22439
_ul1132,UL.,ŚWIĄTNICKA,22451
_ul1133,UL.,ŚWIDNICKA,22461
_ul1134,UL.,ŚWIEBODZKA,22472
_ul1135,UL.,ŚWIERKOWA,22508
_ul1136,UL.,ŚWIEŻA,22530
_ul1137,UL.,ŚWIĘTOCHŁOWICKA,22541
_ul1138,PL.,ŚWIĘTOJAŃSKI,22549
_ul1139,UL.,ŚWIĘTOKRZYSKA,22552
_ul1140,UL.,MIŁOSTOWSKA,27538
_ul1141,UL.,RODZINY KORNÓW,39032
_ul1142,UL.,PAKOSŁAWSKA,39756
_ul1143,UL.,AUSTRIACKA,31214
_ul1144,UL.,IRLANDZKA,06929
_ul1145,SKWER,SOLIDARNOŚCI WALCZĄCEJ,39697
_ul1146,UL.,ZAJĘCZA,25427
_ul1147,UL.,PASTELOWA,15773
_ul1148,UL.,PASTERSKA,15776
_ul1149,UL.,PAULIŃSKA,15826
_ul1150,UL.,PAWIA,15832
_ul1151,UL.,PAWŁA,15858
_ul1152,UL.,PAWŁOWICKA,15868
_ul1153,UL.,PEDAGOGICZNA,15907
_ul1154,UL.,PEŁCZYŃSKA,15922
_ul1155,UL.,PERZOWA,15962
_ul1156,WYSPA,PIASEK,16024
_ul1157,UL.,PIASKOWA,16033
_ul1158,UL.,PIASTOWSKA,16046
_ul1159,AL.,PIASTÓW,16054
_ul1160,UL.,PIECHOTY,16079
_ul1161,UL.,PIECHOWICKA,16082
_ul1162,UL.,PIEKARSKA,16111
_ul1163,UL.,PIELĘGNIARSKA,16120
_ul1164,UL.,PIENIŃSKA,16132
_ul1165,UL.,PIEPRZNA,16140
_ul1166,UL.,PIERWIOSNKOWA,16150
_ul1167,UL.,PIERWSZEJ DYWIZJI,16156
_ul1168,UL.,PIESZA,16164
_ul1169,UL.,PIESZYCKA,16166
_ul1170,UL.,PIETRZYKOWICKA,16184
_ul1171,UL.,PIĘĆDZIESIĘCIU BOHATERÓW,16189
_ul1172,UL.,PIĘKNA,16191
_ul1173,UL.,PILCZYCKA,16221
_ul1174,UL.,PILNIKARSKA,16235
_ul1175,UL.,PIŁAWSKA,16245
_ul1176,UL.,PIŁKARZY,16247
_ul1177,UL.,PIOŁUNOWA,16288
_ul1178,UL.,PIONIERÓW,16290
_ul1179,SKWER,PIONIERÓW WROCŁAWSKICH,47134
_ul1180,UL.,PIONIERSKA,16297
_ul1181,UL.,PIOTRKOWSKA,16308
_ul1182,UL.,PIRENEJSKA,16333
_ul1183,UL.,PIWNA,16370
_ul1184,UL.,PIWNICZNA,16371
_ul1185,UL.,SZAFIROWA,21712
_ul1186,UL.,JAGLANA,07048
_ul1187,UL.,JAROSŁAWSKA,07264
_ul1188,UL.,LASKOWICKA,10667
_ul1189,UL.,WIERUSZOWSKA,24153
_ul1190,UL.,ŻYTOMIERSKA,26636
_ul1191,UL.,SREBRNOGÓRSKA,34086
_ul1192,UL.,JELCZAŃSKA,07453
_ul1193,UL.,LUBIĄSKA,40673
_ul1194,UL.,NADOLICKA,40675
_ul1195,UL.,PROCHOWICKA,40674
_ul1196,UL.,CEDROWA,02566
_ul1197,UL.,SIKORCZA,19894
_ul1198,UL.,SIOSTRZANA,19932
_ul1199,UL.,SKAŁECZNA,19982
_ul1200,UL.,SKARBOWCÓW,20004
_ul1201,UL.,SKARBU ZAKRZOWSKIEGO,20006
_ul1202,UL.,SKIBOWA,20043
_ul1203,UL.,SKIERNIEWICKA,20052
_ul1204,UL.,SKŁADOWA,20060
_ul1205,UL.,SKOCZNA,20071
_ul1206,UL.,SMOLNA,20369
_ul1207,UL.,SNOPKOWA,20402
_ul1208,UL.,SKRAJNA,20137
_ul1209,UL.,SNYCERSKA,20406
_ul1210,UL.,SOBIESZOWSKA,20439
_ul1211,UL.,SOBOCIŃSKA,20445
_ul1212,UL.,SKRZYDLATA,20158
_ul1213,UL.,SOBÓTKI,20459
_ul1214,UL.,SOCHACZEWSKA,20463
_ul1215,UL.,SOJOWA,20474
_ul1216,UL.,SKWEROWA,20187
_ul1217,UL.,SOKOLA,20478
_ul1218,UL.,SKWIERZYŃSKA,20189
_ul1219,UL.,SOKOLNICZA,20491
_ul1220,WYSPA,SŁODOWA,20226
_ul1221,PL.,SOLIDARNOŚCI,20530
_ul1222,UL.,SŁOMIANA,20235
_ul1223,UL.,ŚWINOUJSKA,22566
_ul1224,UL.,SŁONECZNA,20254
_ul1225,UL.,ŚWIT,22576
_ul1226,UL.,TALLIŃSKA,22611
_ul1227,BULW.,SŁONECZNY,20261
_ul1228,WYSPA,TAMKA,22623
_ul1229,UL.,SŁOTNA,20279
_ul1230,UL.,TAPICERSKA,22636
_ul1231,UL.,SŁOWACKA,20282
_ul1232,UL.,TARNINOWA,22672
_ul1233,UL.,SŁOWIAŃSKA,20294
_ul1234,UL.,TARNOBRZESKA,22675
_ul1235,PL.,SŁOWIAŃSKI,20295
_ul1236,UL.,TARNOGAJSKA,22676
_ul1237,UL.,SŁOWICZA,20298
_ul1238,UL.,TARNOGÓRSKA,22677
_ul1239,UL.,TARNOPOLSKA,22679
_ul1240,UL.,SŁUBICKA,20308
_ul1241,UL.,SŁUPSKA,20316
_ul1242,UL.,TARNOWSKA,22681
_ul1243,UL.,TATARAKOWA,22706
_ul1244,UL.,TOROWA,22897
_ul1245,UL.,TATARSKA,22712
_ul1246,UL.,TORUŃSKA,22902
_ul1247,UL.,TOWAROWA,22907
_ul1248,UL.,TRAKTATOWA,22936
_ul1249,UL.,TRAMWAJOWA,22944
_ul1250,UL.,TRAWOWA,22972
_ul1251,UL.,ŚWIĘTEJ TRÓJCY,23017
_ul1252,UL.,TRÓJKĄTNA,23019
_ul1253,UL.,TRUSKAWKOWA,23033
_ul1254,UL.,TRWAŁA,23037
_ul1255,UL.,TRZEBNICKA,23073
_ul1256,UL.,TRZEBOWIAŃSKA,23075
_ul1257,UL.,TRZEMESKA,23091
_ul1258,UL.,TRZMIELOWICKA,23096
_ul1259,UL.,TURECKA,23153
_ul1260,UL.,TURKUSOWA,23160
_ul1261,UL.,TURNIEJOWA,23164
_ul1262,UL.,TUROSZOWSKA,23169
_ul1263,UL.,TURYSTYCZNA,23184
_ul1264,UL.,TWARDA,23200
_ul1265,UL.,TATRZAŃSKA,22717
_ul1266,UL.,TWARDOGÓRSKA,23202
_ul1267,UL.,TYBETAŃSKA,23222
_ul1268,UL.,TYLNA,23240
_ul1269,UL.,TYSKA,23274
_ul1270,UL.,UBOCZE,23289
_ul1271,UL.,UCZNIOWSKA,23299
_ul1272,UL.,UKRAIŃSKA,23328
_ul1273,UL.,UKRYTA,23329
_ul1274,UL.,ULOWA,23337
_ul1275,UL.,UŁAŃSKA,23345
_ul1276,UL.,UNIWERSYTECKA,23375
_ul1277,PL.,UNIWERSYTECKI,23376
_ul1278,UL.,UPALNA,23381
_ul1279,UL.,USTRONIE,23430
_ul1280,UL.,WADOWICKA,23485
_ul1281,UL.,WAFLOWA,23489
_ul1282,UL.,TCZEWSKA,22722
_ul1283,UL.,WAGONOWA,23495
_ul1284,UL.,WALECZNYCH,23527
_ul1285,UL.,WAŁBRZYSKA,23582
_ul1286,UL.,TEATRALNA,22723
_ul1287,UL.,WAŁOWA,23586
_ul1288,UL.,WANDY,23611
_ul1289,PL.,TEATRALNY,22725
_ul1290,UL.,WARCIAŃSKA,23637
_ul1291,UL.,WARMIŃSKA,23663
_ul1292,UL.,TENISOWA,22744
_ul1293,UL.,WARSZAWSKA,23682
_ul1294,UL.,TERENOWA,22757
_ul1295,UL.,WARSZTATOWA,23695
_ul1296,UL.,WARZYWNICZA,23714
_ul1297,UL.,TĘCZOWA,22777
_ul1298,UL.,WATOWA,23744
_ul1299,UL.,WEJHEROWSKA,23842
_ul1300,UL.,TKACKA,22794
_ul1301,UL.,TOKARSKA,22824
_ul1302,UL.,WEŁNIANA,23850
_ul1303,UL.,WESOŁA,23884
_ul1304,UL.,TOMASZOWSKA,22856
_ul1305,PL.,WESTERPLATTE,23895
_ul1306,UL.,TOPOLOWA,22880
_ul1307,UL.,WĘDKARZY,23914
_ul1308,UL.,WĘDROWCÓW,23915
_ul1309,UL.,WĘGIERSKA,23923
_ul1310,UL.,WSCHOWSKA,24880
_ul1311,UL.,WSZYSTKICH ŚWIĘTYCH,24895
_ul1312,UL.,WYBOISTA,24910
_ul1313,UL.,WĘGOBORSKA,23938
_ul1314,UL.,WYGODNA,24984
_ul1315,UL.,WYLOTOWA,25007
_ul1316,UL.,WYSOKA,25067
_ul1317,UL.,WIADUKTOWA,23961
_ul1318,UL.,WYSTAWOWA,25088
_ul1319,AL.,WIĄZOWA,23982
_ul1320,UL.,WIDAWSKA,23999
_ul1321,UL.,WIDŁAKOWA,24004
_ul1322,UL.,WIDNA,24006
_ul1323,UL.,WIDOK,24011
_ul1324,UL.,WIECZORNA,24039
_ul1325,UL.,WIEDEŃSKA,24044
_ul1326,UL.,WIEJSKA,24048
_ul1327,UL.,WIELETÓW,24055
_ul1328,UL.,WIELKA,24069
_ul1329,UL.,WIELKOPOLSKA,24096
_ul1330,UL.,WIELUŃSKA,24117
_ul1331,UL.,HELSKA,06587
_ul1332,UL.,HENRYKA BRODATEGO,06600
_ul1333,UL.,HENRYKA POBOŻNEGO,06602
_ul1334,UL.,HENRYKA PROBUSA,06604
_ul1335,UL.,HENRYKOWSKA,06607
_ul1336,UL.,HIPPICZNA,06665
_ul1337,AL.,JANA III SOBIESKIEGO,20428
_ul1338,UL.,CZERWONYCH MAKÓW,03448
_ul1339,UL.,CZESKA,03450
_ul1340,UL.,CZĘSTOCHOWSKA,03458
_ul1341,UL.,CZOŁGISTÓW,03468
_ul1342,UL.,CZYSTA,03513
_ul1343,UL.,CZYTANKOWA,03517
_ul1344,UL.,ĆWICZEBNA,03539
_ul1345,UL.,DALEKA,03557
_ul1346,UL.,DALEMIŃCÓW,03561
_ul1347,UL.,DALIMIRA,03565
_ul1348,UL.,DALIOWA,03566
_ul1349,UL.,DARŁOWSKA,03616
_ul1350,UL.,DĄBRÓWKI,03701
_ul1351,UL.,DEKARSKA,03726
_ul1352,UL.,DERENIOWA,03773
_ul1353,UL.,DESANTOWA,03779
_ul1354,AL.,DĘBOWA,03810
_ul1355,UL.,DŁUGA,03839
_ul1356,UL.,DŁUGOPOLSKA,03847
_ul1357,UL.,DOBRA,03928
_ul1358,UL.,DOBROSZYCKA,03954
_ul1359,UL.,DOBRZAŃSKA,03973
_ul1360,UL.,DOBRZYŃSKA,03995
_ul1361,UL.,DOJAZD,04001
_ul1362,UL.,DOLNA,04034
_ul1363,UL.,DOLNOBRZESKA,04049
_ul1364,UL.,DOMASŁAWSKA,04088
_ul1365,UL.,DOROTY,04132
_ul1366,UL.,DOŻYNKOWA,04151
_ul1367,UL.,DROGOSŁAWICKA,04245
_ul1368,UL.,DRÓŻNICZA,04272
_ul1369,UL.,DRZEWNA,04308
_ul1370,UL.,DUBROWNICKA,04341
_ul1371,UL.,ŚWIĘTEGO DUCHA,04346
_ul1372,UL.,DUŃSKA,04405
_ul1373,UL.,DUSZNICKA,04414
_ul1374,UL.,DWORCOWA,04434
_ul1375,UL.,DYREKCYJNA,04526
_ul1376,UL.,DZIADOSZAŃSKA,04565
_ul1377,UL.,GLINIANA,05559
_ul1378,UL.,GLIWICKA,05583
_ul1379,UL.,GŁOGOWSKA,05614
_ul1380,UL.,GŁOŚNA,05621
_ul1381,UL.,DZIAŁDOWSKA,04568
_ul1382,UL.,DZIAŁKOWA,04572
_ul1383,UL.,DZIARSKA,04594
_ul1384,UL.,DZIELNA,04626
_ul1385,UL.,DZIERŻONIOWSKA,04649
_ul1386,UL.,DZIWNOWSKA,04712
_ul1387,UL.,EKONOMICZNA,04750
_ul1388,UL.,EKSPRESOWA,04754
_ul1389,UL.,ELBLĄSKA,04758
_ul1390,UL.,ELEMENTARZOWA,04775
_ul1391,UL.,ELŻBIETY,04792
_ul1392,UL.,EŁCKA,04794
_ul1393,UL.,ENERGETYCZNA,04801
_ul1394,UL.,ESTOŃSKA,04833
_ul1395,UL.,ETNOGRAFÓW,04839
_ul1396,UL.,FABRYCZNA,04863
_ul1397,UL.,FARNA,04907
_ul1398,UL.,FASOLOWA,04913
_ul1399,UL.,FILOMATÓW,05010
_ul1400,UL.,FIOLETOWA,05025
_ul1401,UL.,FIZYLIERSKA,05055
_ul1402,UL.,FLISACKA,05069
_ul1403,UL.,FOLWARCZNA,05109
_ul1404,UL.,FORTECZNA,05133
_ul1405,UL.,FORTOWA,05139
_ul1406,UL.,KLACZKI,08471
_ul1407,UL.,PRZERWY-TETMAJERA,17755
_ul1408,UL.,BEYZYMA,01116
_ul1409,UL.,ROOSEVELTA,18857
_ul1410,UL.,SZAFERA,21709
_ul1411,BULW.,ZWIERZYCKIEGO,47127
_ul1412,UL.,KUTRZEBY,10507
_ul1413,UL.,FRYCZA-MODRZEWSKIEGO,05193
_ul1414,UL.,TRAUGUTTA,22963
_ul1415,AL.,KOCHANOWSKIEGO,08726
_ul1416,UL.,KRASIŃSKIEGO,09848
_ul1417,UL.,HAUKEGO-BOSAKA,06554
_ul1418,UL.,WYCZÓŁKOWSKIEGO,24963
_ul1419,UL.,LOMPY,11249
_ul1420,UL.,MODRZEJEWSKIEJ,13180
_ul1421,UL.,DZIERŻONIA,04648
_ul1422,UL.,KIELECKA,08379
_ul1423,AL.,AKACJOWA,00156
_ul1424,UL.,ANTONIEGO,00351
_ul1425,UL.,MONTERSKA,13255
_ul1426,MOST,MIESZCZAŃSKI,13347
_ul1427,MOST,WARSZAWSKI,13370
_ul1428,UL.,MYSZKOWSKA,13548
_ul1429,UL.,NAMYSŁOWSKA,13972
_ul1430,UL.,NEKTAROWA,14073
_ul1431,UL.,NORWESKA,14316
_ul1432,UL.,NOŻOWNICZA,14540
_ul1433,UL.,ODRODZENIA POLSKI,14757
_ul1434,UL.,OŁOWIANA,15035
_ul1435,UL.,ORLA,15141
_ul1436,UL.,BALLADYNY,00639
_ul1437,UL.,BARYCKA,00836
_ul1438,UL.,BERNARDYŃSKA,01087
_ul1439,UL.,PRZESKOK,17763
_ul1440,UL.,PUCKA,18079
_ul1441,UL.,RACŁAWICKA,18273
_ul1442,UL.,RAKOWA,18425
_ul1443,UL.,REJONOWA,18568
_ul1444,UL.,ROLNICZA,18821
_ul1445,SKWER,"RUCHU OPORU ""OLIMP""",47137
_ul1446,UL.,ZAGAJE,25341
_ul1447,UL.,ZALEWOWA,25496
_ul1448,UL.,ZATORSKA,25741
_ul1449,UL.,ZĄBKOWICKA,25881
_ul1450,UL.,ZIEMOWITA,26129
_ul1451,UL.,ZUCHOWA,26269
_ul1452,UL.,ŻARSKA,26409
_ul1453,UL.,ŻÓŁTA,26532
_ul1454,UL.,ŻYWOPŁOTOWA,26645
_ul1455,UL.,BRACI HOFMANNÓW,30354
_ul1456,MOST,ŚWIĄTNICKI,32066
_ul1457,UL.,POLONII WROCŁAWSKIEJ,32793
_ul1458,UL.,SAMBORSKA,19461
_ul1459,UL.,SĄSIEDZKA,19585
_ul1460,UL.,SIATKARZY,19750
_ul1461,UL.,JAWORSKIEGO,39310
_ul1462,UL.,DĄBROWSKIEJ,03691
_ul1463,UL.,ORŁOWICZA,15174
_ul1464,UL.,HOENE-WROŃSKIEGO,06685
_ul1465,UL.,WYSŁOUCHA,25052
_ul1466,UL.,ADAMIECKIEGO,00105
_ul1467,UL.,ARCTOWSKIEGO,00398
_ul1468,UL.,BACCIARELLEGO,00546
_ul1469,UL.,BANACHA,00666
_ul1470,UL.,BAUDOUINA DE COURTENAY,00902
_ul1471,UL.,BEMA,01014
_ul1472,UL.,BERLINGA,01068
_ul1473,UL.,PRZESMYCKIEGO,17766
_ul1474,UL.,PRZYBYŁY,17881
_ul1475,UL.,PRZYBYSZEWSKIEGO,17892
_ul1476,UL.,PUGETA,18082
_ul1477,UL.,RATAJA,18469
_ul1478,UL.,REJTANA,18575
_ul1479,UL.,RODZIEWICZÓWNY,18724
_ul1480,UL.,ROENTGENA,18739
_ul1481,UL.,ROMANOWSKIEGO,18834
_ul1482,UL.,ROMERA,18846
_ul1483,UL.,ROSTAFIŃSKIEGO,18884
_ul1484,UL.,RUTKIEWICZ,19132
_ul1485,UL.,ZALESKIEGO,25488
_ul1486,UL.,ZAMOYSKIEGO,25579
_ul1487,UL.,ZAREMBOWICZA,25652
_ul1488,UL.,ZEGADŁOWICZA,25980
_ul1489,UL.,ZELENAYA,25993
_ul1490,UL.,ZELWEROWICZA,25996
_ul1491,UL.,GRZMOTA-SKOTNICKIEGO,06332
_ul1492,UL.,KRZYŻANOWSKIEGO,10190
_ul1493,UL.,PETRUSEWICZA,40564
_ul1494,UL.,STRACHOWSKIEGO,21251
_ul1495,UL.,STYSIA,21486
_ul1496,UL.,SUCHARDY,21494
_ul1497,UL.,KACZMARSKIEGO,37217
_ul1498,UL.,SIERAKOWSKIEGO,19851
_ul1499,UL.,ŚLEBODZIŃSKIEGO,41276
_ul1500,UL.,KURONIA,40565
_ul1501,UL.,SYROKOMLI,21683
_ul1502,UL.,SZANIECKIEGO,21765
_ul1503,UL.,SZRAMKA,22087
_ul1504,UL.,SZYMANOWSKIEGO,22238
_ul1505,UL.,ŚLĄZAKA,22315
_ul1506,UL.,ŻEROMSKIEGO,26469
_ul1507,UL.,MICHELETA,26856
_ul1508,UL.,ORLIŃSKIEGO,26976
_ul1509,UL.,SKIBIŃSKIEGO,26977
_ul1510,UL.,ZAGŁOBY,29225
_ul1511,UL.,FEICHTA,29464
_ul1512,UL.,MASZTALERZA,29467
_ul1513,UL.,FALZMANNA,29470
_ul1514,UL.,KAMIEŃSKIEGO,29471
_ul1515,BULW.,DUNIKOWSKIEGO,29473
_ul1516,UL.,RODAKOWSKIEGO,29479
_ul1517,UL.,SMOLEŃSKIEGO,29480
_ul1518,UL.,MICHALCZYKA,30002
_ul1519,UL.,MŁODNICKIEGO,34193
_ul1520,UL.,SEMPOŁOWSKIEJ,19674
_ul1521,UL.,SIEMIRADZKIEGO,19816
_ul1522,UL.,SIENKIEWICZA,19834
_ul1523,UL.,SIKORSKIEGO,19907
_ul1524,UL.,SKARŻYŃSKIEGO,20025
_ul1525,UL.,SKRZETUSKIEGO,20156
_ul1526,UL.,WOŁODYJOWSKIEGO,24715
_ul1527,UL.,WORCELLA,24742
_ul1528,UL.,WROCŁAWCZYKA,24805
_ul1529,UL.,WYSOCKIEGO,25061
_ul1530,BULW.,WYSZYŃSKIEGO,47138
_ul1531,UL.,CURIE-SKŁODOWSKIEJ,03148
_ul1532,UL.,BIEGASA,01234
_ul1533,AL.,BOYA-ŻELEŃSKIEGO,01928
_ul1534,UL.,BOZNAŃSKIEJ,01930
_ul1535,UL.,BRANDTA,02033
_ul1536,UL.,BRONIEWSKIEGO,02125
_ul1537,UL.,BRZECHWY,02225
_ul1538,UL.,BUJWIDA,02385
_ul1539,UL.,BUKOWSKIEGO,02400
_ul1540,UL.,CEGIELSKIEGO,02584
_ul1541,UL.,CHAŁUBIŃSKIEGO,02663
_ul1542,UL.,CHRZANOWSKIEGO,02912
_ul1543,UL.,CIESZKOWSKIEGO,03055
_ul1544,UL.,CINCIAŁY,03081
_ul1545,UL.,CYBULSKIEGO,03159
_ul1546,UL.,CZAJKOWSKIEGO,03235
_ul1547,UL.,CZARNIECKIEGO,03283
_ul1548,UL.,CZECHOWA,03338
_ul1549,UL.,ŁUKASIEWICZA,11749
_ul1550,UL.,ŁUKASIŃSKIEGO,11755
_ul1551,UL.,MAJCHRA,11951
_ul1552,UL.,MALECZYŃSKICH,12046
_ul1553,UL.,MAŁKOWSKIEGO,12165
_ul1554,UL.,MARCINKOWSKIEGO,12299
_ul1555,UL.,MARCZEWSKIEGO,12314
_ul1556,AL.,MATEJKI,12486
_ul1557,UL.,MĘCIŃSKIEGO,12649
_ul1558,UL.,MIARKI,12674
_ul1559,UL.,MICHAŁOWSKIEGO,12716
_ul1560,UL.,MICIŃSKIEGO,12729
_ul1561,UL.,MIECHOWITY,12746
_ul1562,UL.,MIEROSŁAWSKIEGO,12809
_ul1563,UL.,MIKULSKIEGO,12910
_ul1564,UL.,MOCHNACKIEGO,13154
_ul1565,UL.,MONIUSZKI,13246
_ul1566,UL.,MOSBACHA,13322
_ul1567,UL.,NENCKIEGO,14074
_ul1568,UL.,NORWIDA,14319
_ul1569,UL.,NOSKOWSKIEGO,14326
_ul1570,UL.,OLSZEWSKIEGO,15008
_ul1571,UL.,ORKANA,15140
_ul1572,UL.,ORŁOWSKIEGO,15178
_ul1573,UL.,ORZESZKOWEJ,15211
_ul1574,UL.,OSTROROGA,15384
_ul1575,UL.,OSTROWSKIEGO,15392
_ul1576,UL.,PANKIEWICZA,15633
_ul1577,UL.,PARANDOWSKIEGO,15680
_ul1578,UL.,POLA,16961
_ul1579,UL.,POŁBINA,17057
_ul1580,UL.,PONIATOWSKIEGO,17113
_ul1581,UL.,POPIELSKIEGO,17143
_ul1582,UL.,POTEBNI,17271
_ul1583,UL.,POTOCKIEGO,17286
_ul1584,UL.,PRĄDZYŃSKIEGO,17474
_ul1585,UL.,PRETFICZA,17481
_ul1586,UL.,SOWIŃSKIEGO,20625
_ul1587,UL.,STAFFA,20798
_ul1588,UL.,STARZYŃSKIEGO,21047
_ul1589,UL.,STEFCZYKA,21123
_ul1590,UL.,ZAPOLSKIEJ,25632
_ul1591,UL.,ZARUSKIEGO,25674
_ul1592,UL.,ZIELIŃSKIEGO,26073
_ul1593,UL.,ZMORSKIEGO,26228
_ul1594,UL.,ŻMICHOWSKIEJ,26476
_ul1595,UL.,SZNIOLISA,26980
_ul1596,UL.,PESTALOZZIEGO,27748
_ul1597,UL.,BIAŁOSZEWSKIEGO,28240
_ul1598,UL.,LENARTOWICZA,28474
_ul1599,AL.,BRÜCKNERA,28627
_ul1600,UL.,BOGEDAINA,29465
_ul1601,UL.,DRUCKIEGO-LUBECKIEGO,29472
_ul1602,UL.,BECKA,00953
_ul1603,UL.,JEZIERSKIEGO,29477
_ul1604,UL.,FRANCISZKAŃSKA,05151
_ul1605,PL.,FRANCISZKAŃSKI,05152
_ul1606,UL.,FRANCUSKA,05154
_ul1607,UL.,FRYZJERSKA,05202
_ul1608,UL.,GAJOWA,05265
_ul1609,UL.,GAJOWICKA,05266
_ul1610,UL.,GALLA ANONIMA,05286
_ul1611,UL.,GAŁOWSKA,05305
_ul1612,UL.,GARBARY,05321
_ul1613,UL.,GARNCARSKA,05345
_ul1614,UL.,GARWOLIŃSKA,05350
_ul1615,UL.,GĄDOWSKA,05408
_ul1616,UL.,GDAŃSKA,05431
_ul1617,UL.,GERBEROWA,05460
_ul1618,UL.,GĘSIA,05476
_ul1619,UL.,GIEŁDOWA,05494
_ul1620,UL.,GIMNAZJALNA,05527
_ul1621,UL.,GIŻYCKA,05541
_ul1622,UL.,GLEBOWA,05553
_ul1623,UL.,GŁUBCZYCKA,05639
_ul1624,UL.,ZAKA,31894
_ul1625,UL.,WALLENRODA,26651
_ul1626,RONDO,SKALSKIEGO,43731
_ul1627,UL.,ORZECHOWA,15202
_ul1628,UL.,OSADNICZA,15227
_ul1629,UL.,OSIECKA,15233
_ul1630,UL.,OSIEDLOWA,15300
_ul1631,UL.,OSINIECKA,15309
_ul1632,UL.,OSOBOWICKA,15337
_ul1633,UL.,OSTOWA,15370
_ul1634,UL.,OSTRĘŻYNOWA,15377
_ul1635,UL.,OSTROWSKA,15390
_ul1636,WYSPA,OSTRÓW TUMSKI,15402
_ul1637,UL.,OTMUCHOWSKA,15445
_ul1638,UL.,OTWARTA,15463
_ul1639,UL.,OTYŃSKA,15467
_ul1640,UL.,OWCZARSKA,15471
_ul1641,UL.,OWOCOWA,15479
_ul1642,UL.,OWSIANA,15481
_ul1643,UL.,OŻYNOWA,15497
_ul1644,UL.,PABIANICKA,15498
_ul1645,UL.,PACHNĄCA,15509
_ul1646,UL.,PACZKOWSKA,15518
_ul1647,UL.,PAKISTAŃSKA,15561
_ul1648,UL.,PALISADOWA,15577
_ul1649,UL.,PAŁUCKA,15598
_ul1650,UL.,PAPIERNICZA,15653
_ul1651,UL.,PAPROTNA,15668
_ul1652,UL.,PARAFIALNA,15679
_ul1653,UL.,PARKOWA,15710
_ul1654,UL.,PARTYNICKA,15727
_ul1655,UL.,PARTYZANTÓW,15733
_ul1656,UL.,PARYSKA,15741
_ul1657,UL.,PASIECZNA,15763
_ul1658,UL.,PIWOWARSKA,16384
_ul1659,AL.,PLATANOWA,16447
_ul1660,UL.,PŁUŻNA,16540
_ul1661,UL.,POCHYŁA,16570
_ul1662,UL.,POCZTOWA,16579
_ul1663,UL.,BUJNA,02378
_ul1664,UL.,BUKOWA,02387
_ul1665,UL.,BUKOWICKA,02389
_ul1666,UL.,BUŁGARSKA,02436
_ul1667,UL.,BURACZANA,02440
_ul1668,UL.,BURZOWA,02472
_ul1669,UL.,BUSKA,02476
_ul1670,UL.,BYCZYŃSKA,02495
_ul1671,UL.,BYDGOSKA,02498
_ul1672,UL.,BYSTRZYCKA,02516
_ul1673,UL.,BYTOMSKA,02528
_ul1674,UL.,BYTOWSKA,02530
_ul1675,UL.,BZOWA,02532
_ul1676,PL.,BZOWY,02534
_ul1677,UL.,CENTRALNA,02614
_ul1678,UL.,CEREKWICKA,02635
_ul1679,UL.,CESARZOWICKA,02642
_ul1680,UL.,CHABROWA,02657
_ul1681,UL.,CHAŁUPNICZA,02667
_ul1682,UL.,CHARKOWSKA,02672
_ul1683,UL.,CHEŁMSKA,02709
_ul1684,UL.,CHEMICZNA,02712
_ul1685,UL.,CHĘCIŃSKA,02715
_ul1686,UL.,CHORZOWSKA,02863
_ul1687,UL.,CHLEBOWA,02724
_ul1688,UL.,CHŁODNA,02739
_ul1689,UL.,CHŁOPSKA,02750
_ul1690,UL.,CHMIELARSKA,02755
_ul1691,UL.,CHMIELNA,02768
_ul1692,UL.,CHMURNA,02776
_ul1693,UL.,CHOBIEŃSKA,02777
_ul1694,UL.,CHOCIMSKA,02790
_ul1695,UL.,CHOJNOWSKA,02828
_ul1696,UL.,CHWAŁKOWSKA,02941
_ul1697,UL.,CHYŻAN,02961
_ul1698,UL.,CICHA,02974
_ul1699,UL.,CIECHOCIŃSKA,02997
_ul1700,UL.,CIEPLICKA,03027
_ul1701,PL.,CIESIELSKI,03049
_ul1702,UL.,CISOWA,03098
_ul1703,UL.,CHOLEWKARSKA,02830
_ul1704,UL.,CUKIERNICZA,03134
_ul1705,UL.,CUKROWA,03135
_ul1706,UL.,CYNOWA,03188
_ul1707,UL.,CYTRYNOWA,03213
_ul1708,UL.,CZAJCZA,03223
_ul1709,UL.,CZARNOLESKA,03296
_ul1710,UL.,CZEREMCHOWA,03371
_ul1711,UL.,CZEREŚNIOWA,03376
_ul1712,UL.,LITOMSKA,11225
_ul1713,UL.,LNIANA,11234
_ul1714,UL.,LOTNICZA,11270
_ul1715,UL.,LUBELSKA,11307
_ul1716,UL.,LUBIŃSKA,11327
_ul1717,UL.,LUBLAŃSKA,11330
_ul1718,UL.,LUBSKA,11363
_ul1719,UL.,LUBUSKA,11365
_ul1720,UL.,LUDOWA,11383
_ul1721,SKWER,"LUDZI ZE ZNAKIEM ""P""",47131
_ul1722,UL.,LUTYCKA,11459
_ul1723,UL.,LUTYŃSKA,11461
_ul1724,UL.,LWOWSKA,11467
_ul1725,UL.,ŁADNA,11490
_ul1726,UL.,ŁAGIEWNICKA,11497
_ul1727,UL.,ŁANIEWSKA,11511
_ul1728,UL.,ŁANOWA,11512
_ul1729,UL.,ŁAZIENNA,11561
_ul1730,UL.,ŁĄCZNA,11577
_ul1731,UL.,ŁĄCZNOŚCI,11582
_ul1732,UL.,ŁĄKA MAZURSKA,11586
_ul1733,UL.,ŁĄKOWA,11596
_ul1734,UL.,ŁOPIANOWA,11664
_ul1735,UL.,ŁOSOSIOWICKA,11682
_ul1736,UL.,ŁOWIECKA,11695
_ul1737,UL.,ŁÓDZKA,11710
_ul1738,UL.,ŁYSOGÓRSKA,11811
_ul1739,UL.,ŁYŻWIARZY,11816
_ul1740,UL.,MACEDOŃSKA,11818
_ul1741,PL.,MACIEJA,11834
_ul1742,UL.,3 MAJA,11937
_ul1743,UL.,9 MAJA,11941
_ul1744,UL.,MALARSKA,12027
_ul1745,UL.,MALBORSKA,12031
_ul1746,UL.,MALCZYCKA,12042
_ul1747,UL.,ŁUBINOWA,11719
_ul1748,UL.,ŁUCZAN,11730
_ul1749,UL.,MALINOWA,12065
_ul1750,UL.,ŁUCZNIKÓW,11740
_ul1751,UL.,MALWOWA,12096
_ul1752,UL.,MAŁOMICKA,12182
_ul1753,UL.,MAŁOPANEWSKA,12187
_ul1754,UL.,ŁUGOWIŃSKA,11745
_ul1755,UL.,MAŁOPOLSKA,12189
_ul1756,UL.,MAŁOSZYŃSKA,12196
_ul1757,UL.,ŁUKOWA,11772
_ul1758,UL.,MANDARYNKOWA,12223
_ul1759,UL.,MANDŻURSKA,12224
_ul1760,UL.,MANGANOWA,12228
_ul1761,UL.,ŁUKOWSKA,11774
_ul1762,UL.,MARCINA,12284
_ul1763,UL.,MARII MAGDALENY,12351
_ul1764,UL.,MARSOWA,12392
_ul1765,UL.,MARSZOWICKA,12403
_ul1766,UL.,MARYNARSKA,12427
_ul1767,UL.,MASZTOWA,12469
_ul1768,UL.,ŁUŻYCKA,11793
_ul1769,UL.,MAŚLICKA,12477
_ul1770,UL.,MAZEPY,12536
_ul1771,UL.,MAZOWIECKA,12540
_ul1772,UL.,MĄCZNA,12563
_ul1773,UL.,MECHANIKÓW,12576
_ul1774,UL.,MENNICZA,12609
_ul1775,UL.,METALOWCÓW,12632
_ul1776,UL.,MEWIA,12645
_ul1777,UL.,MIECHOWSKA,12748
_ul1778,UL.,MIECZYKOWA,12754
_ul1779,UL.,MIEDZIANA,12765
_ul1780,UL.,MIEJSKA,12772
_ul1781,UL.,MIELECKA,12784
_ul1782,UL.,MIERNICZA,12806
_ul1783,UL.,MIEROSZOWSKA,12812
_ul1784,UL.,MIESZCZAŃSKA,12825
_ul1785,UL.,MIĘDZYLESKA,12851
_ul1786,UL.,MIĘDZYRZECKA,12860
_ul1787,UL.,MIĘDZYZDROJSKA,12866
_ul1788,UL.,MIĘTOWA,12870
_ul1789,UL.,MIGDAŁOWA,12875
_ul1790,PL.,MIKOŁAJA,12884
_ul1791,UL.,MIKOŁAJA,12885
_ul1792,UL.,MIKOŁOWSKA,12898
_ul1793,UL.,MIKORY,12899
_ul1794,UL.,MILICKA,12937
_ul1795,UL.,MIŁA,12947
_ul1796,UL.,GOLESZAN,05728
_ul1797,UL.,GOŁĘBIA,05761
_ul1798,UL.,GOŁĘŻYCKA,05773
_ul1799,UL.,GOŁNOWSKA,05776
_ul1800,UL.,GOPLAN,05801
_ul1801,UL.,GORLICKA,05826
_ul1802,UL.,GOSPODARSKA,05853
_ul1803,UL.,GOSTYŃSKA,05860
_ul1804,UL.,GÓRALSKA,05924
_ul1805,UL.,GÓRECKA,05929
_ul1806,UL.,GÓRNOŚLĄSKA,05976
_ul1807,UL.,GRABARSKA,06006
_ul1808,UL.,GRABISZYŃSKA,06021
_ul1809,UL.,GRABOWA,06029
_ul1810,UL.,GRADOWA,06057
_ul1811,UL.,GRANATOWA,06069
_ul1812,UL.,GRANICZNA,06075
_ul1813,UL.,GŁUSZYCKA,05650
_ul1814,UL.,GRECKA,06091
_ul1815,UL.,GROBLA KOZANOWSKA,06123
_ul1816,AL.,KLONOWA,08572
_ul1817,UL.,KLUCZBORSKA,08587
_ul1818,UL.,KŁODNICKA,08619
_ul1819,UL.,KŁOKOCZYCKA,08626
_ul1820,UL.,KŁOŚNA,08639
_ul1821,UL.,KMIECA,08645
_ul1822,UL.,KMINKOWA,08652
_ul1823,UL.,KOBIERZYCKA,08690
_ul1824,UL.,GMINNA,05654
_ul1825,UL.,KOLARSKA,08794
_ul1826,UL.,KOLBUSZOWSKA,08814
_ul1827,UL.,KOLEJOWA,08828
_ul1828,UL.,KOLISTA,08846
_ul1829,UL.,KOŁOBRZESKA,09009
_ul1830,UL.,KOŁODZIEJSKA,09015
_ul1831,UL.,KOMANDORSKA,09024
_ul1832,UL.,GNIEŹNIEŃSKA,05670
_ul1833,UL.,KOMOROWSKA,09075
_ul1834,UL.,KOMUNY PARYSKIEJ,09101
_ul1835,UL.,KONDUKTORSKA,09124
_ul1836,UL.,KONIŃSKA,09163
_ul1837,PL.,KONSTYTUCJI 3 MAJA,09211
_ul1838,UL.,KOŃCOWA,09229
_ul1839,UL.,KOŃSKA,09231
_ul1840,UL.,KORDIANA,09347
_ul1841,UL.,KOREAŃSKA,09350
_ul1842,UL.,KORZEŃSKA,09413
_ul1843,UL.,KOSMONAUTÓW,09440
_ul1844,UL.,KOSTRZYŃSKA,09495
_ul1845,UL.,KOSYNIERÓW GDYŃSKICH,09503
_ul1846,UL.,KOSZALIŃSKA,09509
_ul1847,UL.,KOSZAROWA,09512
_ul1848,UL.,KOSZYCKA,09529
_ul1849,UL.,KOSZYKARSKA,09535
_ul1850,UL.,KOSZYKARZY,09536
_ul1851,UL.,KOŚCIAŃSKA,09539
_ul1852,UL.,KOŚCIELNA,09546
_ul1853,PL.,KOŚCIELNY,09552
_ul1854,UL.,KOŚCIERZYŃSKA,09557
_ul1855,UL.,KOTLARSKA,09613
_ul1856,UL.,KOTWICZNA,09644
_ul1857,UL.,KOWALSKA,09665
_ul1858,UL.,KOWIEŃSKA,09691
_ul1859,UL.,KOZANOWSKA,09700
_ul1860,UL.,KOZIA,09704
_ul1861,UL.,KOZIELSKA,09714
_ul1862,UL.,KOŻUCHOWSKA,09764
_ul1863,UL.,KRAKOWSKA,09796
_ul1864,UL.,KRAWIECKA,09894
_ul1865,UL.,KRESOWA,09911
_ul1866,UL.,KREŚLARSKA,09913
_ul1867,UL.,KRĘPICKA,09921
_ul1868,UL.,KRĘTA,09925
_ul1869,UL.,KROKUSOWA,09946
_ul1870,UL.,KROŚNIEŃSKA,09965
_ul1871,UL.,KROTOSZYŃSKA,09969
_ul1872,UL.,KROWIA,09971
_ul1873,UL.,KRÓLEWSKA,09987
_ul1874,UL.,KRÓLOWEJ MARYSIEŃKI,10007
_ul1875,UL.,KRÓTKA,10009
_ul1876,UL.,KRUCZA,10013
_ul1877,UL.,KRUPNICZA,10035
_ul1878,UL.,KRUSZCOWA,10038
_ul1879,UL.,KRUSZWICKA,10045
_ul1880,UL.,KRYNICKA,10062
_ul1881,UL.,KRYNICZNA,10066
_ul1882,UL.,KRZELOWSKA,10095
_ul1883,UL.,KRZEMIENIECKA,10099
_ul1884,UL.,KRZYCKA,10138
_ul1885,PL.,KRZYSZTOFA,10156
_ul1886,UL.,KRZYWA,10157
_ul1887,UL.,KRZYWA GROBLA,10159
_ul1888,UL.,KRZYŻANOWICKA,10184
_ul1889,UL.,KRZYŻOWSKA,10201
_ul1890,UL.,KSIĘCIA WITOLDA,10230
_ul1891,UL.,KSIĘGARSKA,10234
_ul1892,UL.,KSIĘGOWA,10236
_ul1893,UL.,KSIĘSKA,10237
_ul1894,UL.,KSIĘŻYCOWA,10268
_ul1895,UL.,KUJAWSKA,10344
_ul1896,UL.,KUJBYSZEWSKA,10348
_ul1897,UL.,KUKUŁCZA,10358
_ul1898,UL.,KUPIECKA,10417
_ul1899,UL.,KURKOWA,10444
_ul1900,UL.,KUROPATWIA,10452
_ul1901,UL.,KURPIÓW,10469
_ul1902,UL.,KURSKA,10470
_ul1903,UL.,KURZY TARG,10482
_ul1904,UL.,KUTNOWSKA,10502
_ul1905,UL.,KWAŚNA,10546
_ul1906,UL.,KWIDZYŃSKA,10572
_ul1907,UL.,KWISKA,10585
_ul1908,UL.,KWITNĄCA,10588
_ul1909,UL.,LAKIERNICZA,10608
_ul1910,UL.,LAOTAŃSKA,10640
_ul1911,UL.,LASKOWA,10666
_ul1912,UL.,LATAWCOWA,10700
_ul1913,UL.,LAZUROWA,10726
_ul1914,UL.,LĄDECKA,10727
_ul1915,UL.,LEGNICKA,10780
_ul1916,UL.,LEKARSKA,10785
_ul1917,UL.,LEKCYJNA,10786
_ul1918,UL.,LEONARDA DA VINCI,10832
_ul1919,UL.,LESZCZYNOWA,10870
_ul1920,UL.,LEŚNA,10898
_ul1921,UL.,LETNIA,10966
_ul1922,UL.,LEWA,10976
_ul1923,UL.,LIGOCKA,11054
_ul1924,UL.,LILIOWA,11067
_ul1925,UL.,LIMANOWSKA,11070
_ul1926,UL.,LIOŃSKA,11093
_ul1927,AL.,LIPOWA,11138
_ul1928,UL.,LIPSKA,11153
_ul1929,UL.,HETMAŃSKA,06637
_ul1930,UL.,HIMALAJSKA,06659
_ul1931,UL.,LISIA,11174
_ul1932,UL.,LIŚCIASTA,11218
_ul1933,UL.,LITEWSKA,11223
_ul1934,UL.,GROCHOWA,06133
_ul1935,UL.,GRODECKA,06143
_ul1936,UL.,GRODZIEŃSKA,06157
_ul1937,UL.,GRODZKA,06163
_ul1938,UL.,GROMADZKA,06169
_ul1939,UL.,GRÓJECKA,06215
_ul1940,UL.,GRUDZIĄDZKA,06236
_ul1941,UL.,GRUNWALDZKA,06260
_ul1942,PL.,GRUNWALDZKI,06262
_ul1943,UL.,GRUSZOWA,06275
_ul1944,UL.,GRYBOWSKA,06280
_ul1945,UL.,GRYCZANA,06281
_ul1946,UL.,GUBIŃSKA,06359
_ul1947,UL.,GWARNA,06415
_ul1948,UL.,GWIAŹDZISTA,06422
_ul1949,UL.,GWIZDANOWSKA,06427
_ul1950,UL.,HAJDUCKA,06457
_ul1951,UL.,HALNA,06490
_ul1952,UL.,HARCERSKA,06523
_ul1953,UL.,HEBLARSKA,06565
_ul1954,UL.,KWIATKOWSKIEGO,10559
_ul1955,UL.,HUBERTA,06783
_ul1956,UL.,INFLANCKA,06903
_ul1957,UL.,JAGNIĄTKOWSKA,07053
_ul1958,UL.,JARZYNOWA,07296
_ul1959,UL.,JELENIA,07455
_ul1960,UL.,JEŹDZIECKA,07544
_ul1961,UL.,JUTROSIŃSKA,07696
_ul1962,UL.,KANADYJSKA,07924
_ul1963,UL.,MIRKOWSKA,13008
_ul1964,UL.,KATARZYNY,08199
_ul1965,SKWER,BOCHEŃSKIEGO,37093
_ul1966,UL.,ŁOKIETKA,11653
_ul1967,UL.,MINKOWSKIEGO,12983
_ul1968,UL.,PIWNIKA-PONUREGO,16376
_ul1969,UL.,ŻIŻKI,26472
_ul1970,UL.,SKOPIJSKA,20089
_ul1971,UL.,SOKALSKA,20476
_ul1972,UL.,SŁONECZNIKOWA,20258
_ul1973,UL.,SŁOWIŃCÓW,20305
_ul1974,UL.,TRAKTOROWA,22937
_ul1975,UL.,TUNELOWA,23143
_ul1976,UL.,TYMIANKOWA,23245
_ul1977,UL.,UZNAMSKA,23457
_ul1978,UL.,WAPIENNA,23624
_ul1979,UL.,WĄSKA,23795
_ul1980,UL.,TORFOWA,22894
_ul1981,UL.,WYKŁADOWA,24998
_ul1982,UL.,WIECZYSTA,24043
_ul1983,UL.,WIEŚNIACZA,24204
_ul1984,UL.,WINCENTEGO,24330
_ul1985,UL.,WOŁCZYŃSKA,24708
_ul1986,UL.,KŁODZKA,08622
_ul1987,UL.,TULIPANOWA,23129
_ul1988,UL.,MARMUROWA,12387
_ul1989,UL.,GOSŁAWICKA,05850
_ul1990,UL.,GITAROWA,38046
_ul1991,UL.,BIAŁOSKÓRNICZA,01183
_ul1992,UL.,BIWAKOWA,01391
_ul1993,UL.,BOCZNA,01528
_ul1994,UL.,BRATA ALBERTA,02046
_ul1995,UL.,BRZEZIŃSKA,02247
_ul1996,UL.,BURSZTYNOWA,02462
_ul1997,UL.,CELTYCKA,02606
_ul1998,UL.,CHIŃSKA,02720
_ul1999,UL.,CHOCIEBUSKA,02786
_ul2000,UL.,CHORWACKA,02859
_ul2001,UL.,CZERWONEGO KRZYŻA,03434
_ul2002,UL.,ŁACIARSKA,11487
_ul2003,UL.,ŁĘCZYCKA,11607
_ul2004,UL.,MAKOWA,12004
_ul2005,UL.,ŁUGOWA,11744
_ul2006,UL.,MARCEPANOWA,12273
_ul2007,UL.,MELIORANCKA,12594
_ul2008,UL.,MIESZKA I,12832
_ul2009,UL.,HERMANOWSKA,06626
_ul2010,PL.,CZYSTY,03515
_ul2011,AL.,DĄBSKA,03703
_ul2012,UL.,DŁUTOWA,03861
_ul2013,PL.,DOMINIKAŃSKI,04103
_ul2014,UL.,DWORSKA,04446
_ul2015,UL.,FIOŁKOWA,05027
_ul2016,UL.,GAZOWA,05403
_ul2017,UL.,GŁÓWNA,05635
_ul2018,UL.,OSTRZESZOWSKA,15414
_ul2019,UL.,PALESTYŃSKA,15574
_ul2020,UL.,PŁASKA,16490
_ul2021,UL.,POLANOWICKA,16976
_ul2022,UL.,POPOWICKA,17166
_ul2023,PL.,POWSTAŃCÓW ŚLĄSKICH,17365
_ul2024,UL.,PRZEBIŚNIEGOWA,17630
_ul2025,UL.,SOŁTYSIA,20564
_ul2026,UL.,SPIŻOWA,20670
_ul2027,UL.,STALOWA,20808
_ul2028,UL.,STORCZYKOWA,21246
_ul2029,UL.,STRZELECKA,21381
_ul2030,UL.,SWOJCZYCKA,21628
_ul2031,UL.,SZCZEPANOWSKA,21821
_ul2032,UL.,SZLIFIERSKA,22001
_ul2033,UL.,SZWAJCARSKA,22169
_ul2034,UL.,ŚLUSARSKA,22351
_ul2035,UL.,ŚWIERADOWSKA,22477
_ul2036,UL.,PĘGOWSKA,15992
_ul2037,UL.,PIERNIKOWA,16148
_ul2038,UL.,PIŃSKA,16286
_ul2039,UL.,BIŁGORAJSKA,01348
_ul2040,UL.,GOGOLIŃSKA,05708
_ul2041,UL.,GÓRNICZA,05962
_ul2042,UL.,GRAWERSKA,06081
_ul2043,UL.,KNIGNICKA,08672
_ul2044,UL.,KOMINIARSKA,09060
_ul2045,UL.,KOSMICZNA,09437
_ul2046,UL.,KRAKUSA,09808
_ul2047,UL.,KRÓLEWIECKA,09983
_ul2048,UL.,KRZESZOWSKA,10124
_ul2049,UL.,KUDOWSKA,10336
_ul2050,UL.,KUŹNICZA,10527
_ul2051,UL.,LECHITÓW,10740
_ul2052,UL.,LIDZBARSKA,11044
_ul2053,UL.,GWARECKA,06409
_ul2054,UL.,WIERZBOWA,24170
_ul2055,UL.,WIERZCHOWICKA,24179
_ul2056,UL.,WIETNAMSKA,24205
_ul2057,UL.,WIETRZNA,24207
_ul2058,UL.,WIĘZIENNA,24229
_ul2059,UL.,WILANOWSKA,24259
_ul2060,UL.,WILCZA,24261
_ul2061,UL.,WILCZKOWSKA,24273
_ul2062,UL.,WILCZYCKA,24277
_ul2063,UL.,WILEŃSKA,24289
_ul2064,UL.,WILGOTNA,24295
_ul2065,UL.,WILGOWA,24296
_ul2066,UL.,WILKSZYŃSKA,24314
_ul2067,UL.,WINOGRONOWA,24359
_ul2068,UL.,WIŃSKA,24362
_ul2069,UL.,WIOSENNA,24364
_ul2070,PL.,WIŚLANY,24399
_ul2071,UL.,WIŚLAŃSKA,24400
_ul2072,AL.,WIŚNIOWA,24411
_ul2073,UL.,WITA,24418
_ul2074,UL.,WITEBSKA,24427
_ul2075,UL.,WITELONA,24429
_ul2076,UL.,WITKOWSKA,24444
_ul2077,UL.,WŁADYSŁAWA JAGIEŁŁY,24494
_ul2078,UL.,WŁODARSKA,24508
_ul2079,UL.,WŁOŚCIAŃSKA,24532
_ul2080,UL.,WODZISŁAWSKA,24572
_ul2081,UL.,WOJCIECHA Z BRUDZEWA,24582
_ul2082,UL.,WOJROWICKA,24621
_ul2083,UL.,WOJSKA POLSKIEGO,24628
_ul2084,UL.,WOJSZYCKA,24639
_ul2085,UL.,WOLBROMSKA,24664
_ul2086,UL.,WOLINIAN,24672
_ul2087,PL.,WOLNOŚCI,24685
_ul2088,UL.,WOLSKA,24694
_ul2089,UL.,WOŁGOGRADZKA,24709
_ul2090,UL.,WOŁYŃSKA,24733
_ul2091,UL.,WORONOWICKA,24747
_ul2092,UL.,WOSKOWA,24751
_ul2093,UL.,WOŹNICZA,24774
_ul2094,UL.,WÓJTOWSKA,24795
_ul2095,UL.,WRONIA,24811
_ul2096,UL.,WRÓBLA,24824
_ul2097,UL.,WRZOSOWA,24870
_ul2098,UL.,WSCHODNIA,24879
_ul2099,UL.,KOKOSOWA,08772
_ul2100,UL.,KONWALIOWA,09223
_ul2101,UL.,OGÓRKOWA,14824
_ul2102,UL.,PLESZEWSKA,16472
_ul2103,UL.,RADKOWSKA,18298
_ul2104,UL.,SŁONIMSKA,20267
_ul2105,UL.,STROŃSKA,21297
_ul2106,UL.,SZPARAGOWA,22065
_ul2107,UL.,BLIŹNIACZA,01419
_ul2108,UL.,WOŁOWSKA,24728
_ul2109,UL.,DROHOBYCKA,27986
_ul2110,UL.,FORSYCJOWA,30908
_ul2111,UL.,MARCHEWKOWA,35514
_ul2112,PRZEJŚCIE,OŁAWSKIE,35515
_ul2113,PRZEJŚCIE,SŁODOWE,35516
_ul2114,PRZEJŚCIE,WINOGRONOWE,35517
_ul2115,ESTAKADA,GĄDOWIANKA,36258
_ul2116,UL.,GRANITOWA,06077
_ul2117,UL.,OLKUSKA,14995
_ul2118,UL.,ZEGARMISTRZOWSKA,36933
_ul2119,UL.,KROŚNICKA,09964
_ul2120,UL.,MALACHITOWA,12025
_ul2121,UL.,KRZEPTOWSKA,37449
_ul2122,UL.,PANIOWICKA,37450
_ul2123,ZAUŁEK,GROTOWSKIEGO,37479
_ul2124,WYB.,CONRADA-KORZENIOWSKIEGO,37583
_ul2125,UL.,BRZOSTOWSKA,02269
_ul2126,UL.,LUBCZYKOWA,11299
_ul2127,UL.,ŁASKA,11527
_ul2128,SKWER,SYBIRAKÓW,40042
_ul2129,UL.,MILENIJNA,29874
_ul2130,MOST,MILENIJNY,37781
_ul2131,ZAUŁEK,LASSALLA,37782
_ul2132,UL.,IRACKA,38045
_ul2133,UL.,PERSKA,15957
_ul2134,PL.,JANA PAWŁA II,07122
_ul2135,UL.,KRAJOBRAZOWA,09784
_ul2136,UL.,WSPÓLNA,24885
_ul2137,UL.,PERKUSYJNA,38047
_ul2138,UL.,MALOWNICZA,12090
_ul2139,UL.,HUSARSKA,06815
_ul2140,UL.,SZWOLEŻERSKA,22184
_ul2141,UL.,KAWALERZYSTÓW,08223
_ul2142,UL.,BARANOWICKA,00711
_ul2143,UL.,ZBARSKA,25884
_ul2144,UL.,IMBIROWA,06888
_ul2145,UL.,BIAŁOGARDZKA,01176
_ul2146,UL.,BIAŁORUSKA,01182
_ul2147,UL.,BIAŁOSTOCKA,01184
_ul2148,UL.,BIAŁOWIESKA,01189
_ul2149,UL.,BIAŁY KĄT,01195
_ul2150,UL.,BIAŁYCH GOŹDZIKÓW,01202
_ul2151,UL.,BIEGŁA,01235
_ul2152,WYSPA,BIELARSKA,01246
_ul2153,UL.,BIELAWSKA,01250
_ul2154,UL.,BIERDZAŃSKA,01296
_ul2155,UL.,BIERUTOWSKA,01316
_ul2156,UL.,BIESZCZADZKA,01326
_ul2157,UL.,BISKUPIA,01363
_ul2158,UL.,BLACHARSKA,01395
_ul2159,UL.,BLISKA,01413
_ul2160,UL.,BLIZANOWICKA,01414
_ul2161,UL.,BŁAWATNA,01444
_ul2162,UL.,BŁĘKITNA,01458
_ul2163,PL.,BOHATERÓW GETTA,01636
_ul2164,UL.,BŁOTNA,01473
_ul2165,UL.,BOISKOWA,01700
_ul2166,UL.,BOJANOWSKA,01703
_ul2167,UL.,BOCHEŃSKA,01506
_ul2168,UL.,BOLESŁAWA CHROBREGO,01742
_ul2169,UL.,BOLESŁAWA KRZYWOUSTEGO,01749
_ul2170,UL.,BOLESŁAWIECKA,01761
_ul2171,UL.,BOLKOWSKA,01780
_ul2172,UL.,BOCIANIA,01518
_ul2173,UL.,BOROWSKA,01866
_ul2174,UL.,BORÓWCZANA,01871
_ul2175,UL.,BOŻEGO CIAŁA,01935
_ul2176,UL.,BOGUSZOWSKA,01614
_ul2177,UL.,BRACI GIERYMSKICH,01970
_ul2178,UL.,BRANIBORSKA,02036
_ul2179,UL.,BRANIEWSKA,02042
_ul2180,UL.,BRATERSKA,02048
_ul2181,UL.,BRATKOWA,02056
_ul2182,UL.,BRATYSŁAWSKA,02063
_ul2183,UL.,BRĄZOWA,02069
_ul2184,UL.,BROCHOWSKA,02082
_ul2185,UL.,BRODNICKA,02091
_ul2186,UL.,BRODZKA,02105
_ul2187,UL.,BROWARNA,02148
_ul2188,UL.,BRYLANTOWA,02209
_ul2189,UL.,BRYNICKA,02215
_ul2190,UL.,BRZESKA,02230
_ul2191,UL.,BRZOSKWINIOWA,02264
_ul2192,UL.,BRZOZOWA,02276
_ul2193,UL.,BUDOWLANA,02335
_ul2194,UL.,BUDZISZYŃSKA,02353
_ul2195,UL.,BUFOROWA,02365
_ul2196,UL.,WĘGLOWA,23934
_ul2197,UL.,RYBIA,19163
_ul2210,RONDO,OBROŃCÓW GRODNA,45834
_ul2211,RONDO,PIO,45835
_ul2212,UL.,STRAUSSA,36604
_ul2213,UL.,UCIECHOWSKA,23296
_ul2230,UL.,IŁŁAKOWICZÓWNY,06881
_ul2231,UL.,BASKIJSKA,46030
_ul2250,UL.,TYKOCIŃSKA,23233
_ul2251,UL.,ŁOMŻYŃSKA,11659
_ul2252,UL.,RADZYŃSKA,18375
_ul2253,UL.,CIECHANOWSKA,02994
_ul2254,UL.,NAŁĘCZOWSKA,13962
_ul2255,UL.,GRUZIŃSKA,06279
_ul2256,UL.,DŁUŻYCKA,46032
_ul2257,UL.,GRĘBOCICKA,46033
_ul2258,UL.,LUKRECJOWA,11412
_ul2259,RONDO,LOTNIKÓW POLSKICH,46034
_ul2260,RONDO,GERMAN,45968
_ul2270,UL.,BAZYLIOWA,00920
_ul2290,UL.,FREDRY,46287
_ul2310,RONDO,KIELARA,46364
_ul2330,UL.,MELIORANCKA POŁUDNIOWA,46359
_ul2331,UL.,OSTOWA PÓŁNOCNA,46363
_ul2332,UL.,POLANOWICKA PÓŁNOCNA,46361
_ul2333,UL.,MIĘTOWA POŁUDNIOWA,46362
_ul2334,UL.,ŻWIRKI I WIGURY ZACHODNIA,46358
_ul2335,UL.,FIELDORFA,04976
_ul2336,UL.,POKRZYWOWA,16953
_ul2350,UL.,ANYŻOWA,00371
_ul2351,UL.,KOWARZYKA,46510
_ul2370,SKWER,SCHNEIDERA,46511
_ul2371,UL.,SCHNEIDERA,46512
_ul2390,UL.,MIŁOSZA,12964
_ul2391,UL.,LAUROWA,10716
_ul2410,SKWER,DAMIANA DE VEUSTER,46700
_ul2430,PL.,JANA CHRZCICIELA,46921
_ul2431,UL.,URBANOWICZA,29929
_ul2432,UL.,CZARTORYSKIEGO,29816
_ul2450,UL.,RODŁA,18716
_ul2451,UL.,DOMAŃSKIEGO,04084
_ul2452,UL.,KŁOPOCKIEJ,41142
_ul2470,SKWER,BEŁZY,47246
_ul2471,RONDO,BARANOWSKIEGO,47245
_ul2490,SKWER,RYSIA,48323
_ul2491,RONDO,WALLENBERGA,48322
_ul2492,UL.,MATUSZKA,48321
_ul2493,UL.,JAŁOWCOWA,07097
_ul2494,UL.,MAJERANKOWA,11961
_ul2495,UL.,KARDAMONOWA,46621
_ul2496,UL.,ŻURAWINOWA,26585
_ul2510,UL.,KOMORNICKA,09070
_ul2511,UL.,ORKISZOWA,42543
_ul2512,UL.,GISERSKA,05531
_ul2513,UL.,WRÓBLOWICKA,24844
_ul2514,UL.,KUSTRONIA,10495
_ul2515,SKWER,ELWRO,48822
_ul2516,SKWER,ORMIAŃSKI,48820
_ul2517,SKWER,STEINMETZA,48821
_ul2530,SKWER,KRASIŃSKIEGO,46738
_ul2550,UL.,JODŁOWICKA,49110
_ul2551,UL.,MUROWANA,13497
_ul2552,UL.,GOŁDAPSKA,05759
_ul2553,UL.,URODZAJNA,23411
_ul2554,UL.,CZARNUSZKOWA,49109
_ul2555,UL.,GORCZYCOWA,05817
_ul2556,UL.,KAJDASZA,49111
_ul2557,UL.,KOMEDY,09050
_ul2558,RONDO,HEMARA,49108
_ul2559,SKWER,PTASI ZAGAJNIK,49112
_ul2570,UL.,PLENEROWA,16469
_ul2571,RONDO,POPIEŁUSZKI,32962
_ul2590,SKWER,SPISKE,49584
_ul2610,SKWER,KATYŃSKI,49617
_ul2650,UL.,SZYNOWA,22270
_ul2651,UL.,BABIOGÓRSKA,00541
_ul2652,UL.,STRAWIŃSKIEGO,21268
_ul2670,UL.,GRAPOWA,50169
_ul2690,UL.,WENDY,23859
_ul2691,UL.,CZOCHRALSKIEGO,50627
_ul2692,UL.,GRAJEWSKA,06064
_ul2710,AL.,ARCHITEKTÓW,50628
_ul2711,UL.,FRYDECKIEGO,50629
_ul2712,UL.,MAYA,50633
_ul2713,UL.,POELZIGA,50634
_ul2714,UL.,LAUTERBACHA,50630
_ul2715,UL.,BARSKICH,50631
_ul2716,UL.,BERGA,50635
_ul2717,UL.,BRZOZY,50632
_ul2718,SKWER,SCHAROUNA,50638
_ul2730,UL.,ZLATA,50637
_ul2731,UL.,LIPIŃSKIEGO,50636
_ul2750,UL.,MELISOWA,12596
_ul2751,UL.,KORALOWA,09316
_ul2752,UL.,KĘBŁOWICKA,50956
_ul2753,UL.,INDONEZYJSKA,50957
_ul2770,AL.,KACZOROWSKIEGO,51178
_ul2771,UL.,WAJDY,23502
_ul2790,SKWER,JABŁOŃSKIEGO,51192
_ul2791,MOST,RACŁAWICKI,53471
_ul2792,UL.,RUSZNIKARSKA,19127
_ul2793,UL.,KABACZKOWA,51179
_ul2794,UL.,KARPNICKA,08110
_ul2795,UL.,BRONOWICKA,02139
_ul2811,UL.,SYRYJSKA,51574
_ul2812,UL.,LIBAŃSKA,51575
_ul2813,UL.,BRANICKIEGO,02040
_ul2814,UL.,PEJZAŻOWA,30322
_ul2815,UL.,DA GAMY,51580
_ul2816,UL.,COOKA,51576
_ul2817,UL.,BIEŃKOWSKIEGO,51573
_ul2830,RONDO,ŻOŁNIERZY RADIOTECHNIKÓW,51572
_ul2850,UL.,LUTRA,51912
_ul2853,UL.,BRZUCHOWICKA,51761
_ul2854,UL.,8 MAJA,11938
_ul2855,UL.,SIEDZIKÓWNY,43365
_ul2856,UL.,MOTYKÓWNY,51760
_ul2870,UL.,TURAWSKA,23148
_ul2872,UL.,CIESZYŃSKA,03061
_ul2890,RONDO,WROCŁAWSKICH OLIMPIJCZYKÓW,52372
_ul2910,UL.,SIEMIANOWICKA,19806
_ul2930,MOST,DEKARSKI,32067
_ul2931,MOST,KŁOKOCZYCKI,32068
_ul2932,MOST,PĘGOWSKI,32070
_ul2950,PASAŻ,RADINGA,53006
_ul2951,UL.,WILKASKA,53005
_ul2952,UL.,PASYMSKA,15790
_ul2970,UL.,GRZYBOWA,06341
_ul2971,UL.,CZERWONEJ RÓŻY,53004
_ul2990,UL.,STANETY,53373
_ul3012,UL.,PIGWOWA,16200
_ul3030,UL.,BOBRAŃSKIEGO,53539
_ul3031,SKWER,ZIELIŃSKIEGO,53648
_ul3050,UL.,BOGATYŃSKA,01563
_ul3051,UL.,WĘGLINIECKA,53541
_ul3052,UL.,KUKURYDZIANA,10362
_ul3053,UL.,CZERNICKA,03389
_ul3054,SKWER,MŁYNARSKIEGO,53538
_ul3055,UL.,CYPRYJSKA,03190
_ul3056,UL.,MALEZYJSKA,53540
_ul3070,BULW.,MATKI TERESY Z KALKUTY,53654
_ul3110,UL.,BRZEZIŃSKIEGO,53985
_ul3111,RONDO,4 CZERWCA 1989 R.,53983
_ul3130,RONDO,BEZRUCZKI,53984
_ul3131,SKWER,SENDLEROWEJ,46634
_ul3150,UL.,PISARZOWICKA,27201
_ul3151,UL.,BOROWIKOWA,01856
_ul3152,UL.,JAGIENKI,07047
_ul3210,SKWER,KORFANTEGO,54609
_ul3211,RONDO,NAD CZARNĄ WODĄ,54606
_ul3212,RONDO,BARTOSZEWSKIEGO,51067
_ul3230,UL.,ARMEŃSKA,00417
_ul3231,UL.,DZIAŁOSZYŃSKA,04580
_ul3232,UL.,OŻAROWSKA,15494
_ul3233,UL.,HESSE-BUKOWSKIEJ,54608
_ul3234,SKWER,BADEN-POWELLA,54610
_ul3250,RONDO,ZDUNIAK,54604
_ul3251,RONDO,CHAMCÓWNY,54605
_ul3252,UL.,HERBSTA,54607
_ul3270,UL.,KOPERKOWA,09270
_ul3290,SKWER,HIRSZFELDOWEJ,54722
_ul3310,UL.,GROSZKOWA,06183
_ul3311,SKWER,SZUMAŃSKIEJ,54721
_ul3312,SKWER,KSIĘŻNEJ ANNY ŚLĄSKIEJ,54724
_ul3313,SKWER,JEŻOWSKIEJ-TRZEBIATOWSKIEJ,54723
_ul3350,UL.,CHRZĄSTAWSKA,55159
_ul3351,UL.,ZAMŁYNIE,25556
_ul3352,UL.,DUKIELSKA,04367
_ul3370,UL.,MODRZEJEWSKIEGO,55160
_ul3371,AL.,NARUTOWICZA,55158
_ul3390,UL.,DOMANOWICKA,55306
_ul3391,UL.,KURKUMOWA,55308
_ul3392,RONDO,ŻOŁNIERZY ŁĄCZNOŚCIOWCÓW,55304
_ul3450,SKWER,ADAMOWICZA,55398
_ul3470,UL.,HODOWICKA,55539
_ul3490,UL.,WICHROWA,23989
_ul3491,UL.,TARGOWA,22659
_ul3510,UL.,BIAŁKOWSKA,01163
_ul3530,RONDO,MODZELEWSKIEGO,55540
_ul3550,UL.,EDYTORSKA,55781
_ul3551,UL.,KUGLINA,55783
_ul3552,UL.,KAPAROWA,53790
_ul3553,UL.,KOPYCIŃSKIEGO,55780
_ul3554,UL.,VESPUCCIEGO,55782
_ul3555,UL.,OTRĘBOWA,47229
_ul3556,UL.,TAJWAŃSKA,55779
_ul3557,UL.,ŁABĘDZIA,11474
_ul3558,UL.,HIACYNTOWA,06650
_ul3559,UL.,KURLANDZKA,10447
_ul3570,RONDO,GRUZIŃSKICH OFICERÓW WOJSKA POLSKIEGO,55778
_ul3630,UL.,LUBOMIERSKA,11338
_ul3631,UL.,DRABIKA,04154
